name,type,source,address,grow,lat,lon
Battery Farm ,Non-commercial Farm,Stern,"State St & Battery Pl, New York, NY 10004, USA",Outdoor,40.7045129,-74.01427819999999
Bowery Farming,Commercial Farm,Stern,"151 W 26th St 12th floor, New York, NY 10001, USA",Indoor,40.7457851,-73.9932445
BrightFarms,Commercial Farm,Stern,"211 E 48th St, New York, NY 10017, USA",Indoor,40.7544075,-73.9708852
Brooklyn Grange Rooftop Farms,Commercial Farm,Stern,"37-18 Northern Blvd, Long Island City, NY 11101, USA",Rooftop,40.7519244,-73.9254192
Brooklyn Grange Rooftop Farms,Commercial Farm,Stern,"63 Flushing Ave Bldg 3, Brooklyn, NY 11205, USA",Rooftop,40.6984587,-73.9777556
Brooklyn Grange Rooftop Farms,Commercial Farm,Stern,"850 Third Avenue. Roof, Brooklyn, NY 11232, USA",Rooftop,40.659168,-74.0045225
Eagle Street Rooftop Farm ,Commercial Farm,Stern,"44 Eagle St, Brooklyn, NY 11222, USA",Outdoor,40.7345308,-73.9592954
East New York Farms ,Non-commercial Farm,Stern,"613 New Lots Ave, Brooklyn, NY 11207, USA",Outdoor,40.6649572,-73.8866682
Edgemere Farm & The Healing Garden at Far Rock Farm,Non-commercial Farm,Stern,"385 B 45 St, Far Rockaway, NY 11691, USA",Outdoor,40.5952183,-73.77691589999999
Farm.One,Commercial Farm,Stern,"77 Worth St, New York, NY 10013, USA",Indoor,40.7169064,-74.0055581
Farm.One,Commercial Farm,Stern,"225 Liberty Street Third Floor, New York, NY 10281, USA",Indoor,40.7128171,-74.0153663
Farm.One,Commercial Farm,Stern,"Fifth Avenue Hotel, 200 5th Ave, New York, NY 10010, USA",Indoor,40.7419978,-73.989942
Farm.One,Commercial Farm,Stern,"450 W 33rd St, New York, NY 10001, USA",Indoor,40.7526155,-73.9996513
Farmshelf,Commercial Farm,Stern,"Building 128, 19 Morris Ave, Brooklyn, NY 11205, USA",,40.6992184,-73.9739135
Farmshelf,Commercial Farm,Stern,"89 E 42nd St, New York, NY 10017, USA",,40.7527277,-73.97723529999999
Gotham Greens,Commercial Farm,Stern,"Greenpoint Wood Exchange, 810 Humboldt St, Brooklyn, NY 11222, USA","Indoor, Rooftop",40.7295788,-73.9457219
Gotham Greens,Commercial Farm,Stern,"214 3rd St, Brooklyn, NY 11215, USA","Indoor, Rooftop",40.67489279999999,-73.98878789999999
Gotham Greens,Commercial Farm,Stern,"184-60 Jamaica Ave, Queens, NY 11423, USA","Indoor, Rooftop",40.7090807,-73.7744455
Green Bronx Machine,Non-commercial Farm,Stern,"4422 Grace Ave, Bronx, NY 10466, USA",Indoor,40.89966,-73.8478669
Green Food Solutions,Commercial Farm,Stern,"4 Noll St, Brooklyn, NY 11206, USA",Rooftop,40.70002170000001,-73.9354384
Green Valley Farm,Non-commercial Farm,Stern,"93 New Lots Ave, Brooklyn, NY 11212, USA","Outdoor, Indoor",40.658173,-73.9018059
Groundwork Hudson Valley - Science Barge,Non-commercial Farm,Stern,"22 Main St 2nd Floor, Yonkers, NY 10701, USA",Outdoor,40.9341,-73.899303
Harlem Grown,Non-commercial Farm,Stern,"118 W 134th St, New York, NY 10030, USA",Outdoor,40.8138063,-73.94287059999999
Harlem Grown,Non-commercial Farm,Stern,"126 W 134th St, New York, NY 10030, USA",Outdoor,40.8139732,-73.9430939
Harlem Grown,Non-commercial Farm,Stern,"34 W 131st St, New York, NY 10037, USA",Outdoor,40.810685,-73.94124599999999
Harlem Grown,Non-commercial Farm,Stern,"77 W 127th St, New York, NY 10027, USA",Outdoor,40.80898699999999,-73.94376729999999
Harlem Grown,Non-commercial Farm,Stern,"128 W 127th St, New York, NY 10027, USA",,40.8095005,-73.9459822
Harlem Grown,Non-commercial Farm,Stern,"E 122nd St, New York, NY 10035, USA",This is also the Wagner Farm ,40.8023808,-73.9386885
Harlem Grown,Non-commercial Farm,Stern,"2230 5th Ave, New York, NY 10037, USA",Outdoor,40.8133503,-73.9377732
Harlem Grown,Non-commercial Farm,Stern,"250 W 127th St, New York, NY 10027, USA",Outdoor,40.8106338,-73.9487487
Harlem Grown,Non-commercial Farm,Stern,"425 W 123rd St, New York, NY 10027, USA",,40.810687,-73.95606099999999
Harlem Grown,Non-commercial Farm,Stern,"276 W 151st St, New York, NY 10039, USA",,40.8258675,-73.9378107
Hattie Carthan Community Garden and Market ,Non-commercial Farm,Stern,"49 Van Buren St, Brooklyn, NY 11221, USA",Outdoor,40.69031990000001,-73.9436398
Hell’s Kitchen Farm Project,Non-commercial Farm,Stern,"410 W 40th St, New York, NY 10018, USA",Rooftop,40.7572243,-73.9943301
Hellgate Farm,Commercial Farm,Stern,"14-33 30th Dr, Long Island City, NY 11102, USA",Outdoor,40.768882,-73.929924
Isabahlia - Green Valley Farm,Non-commercial Farm,Stern,"800 W Laurel St, Independence, KS 67301, USA",Outdoor,37.2256055,-95.7162018
KCC Urban Farm,Non-commercial Farm,Stern,"2001 Oriental Blvd, Brooklyn, NY 11235, USA",Outdoor,40.5784526,-73.93557679999999
Kelly Street Garden,Non-commercial Farm,Stern,"924 Kelly St, Bronx, NY 10459, USA",Outdoor,40.8201196,-73.8958159
La Familia Verde,Non-commercial Farm,Stern,"2144F Prospect Ave, Bronx, NY 10460, USA",Outdoor,40.8482466,-73.8849788
La Finca del Sur Community Garden,Non-commercial Farm,Stern,"175 E 138th St, Bronx, NY 10451, USA",Outdoor,40.8128584,-73.92958709999999
Local Roots NYC,Commercial Farm,Stern,"345 Calyer St, Brooklyn, NY 11222, USA",Indoor,40.7306524,-73.94585909999999
NY Sun Works Greenhouse Project,Non-commercial Farm,Stern,"157 Columbus Ave #432, New York, NY 10023, USA",Indoor,40.7742685,-73.9806818
NYU Urban Farm Lab,Non-commercial Farm,Stern,"W Houston St, New York, NY 10012, USA",Outdoor,40.7268776,-73.9996376
NYU Urban Food Lab,Non-commercial Farm,Stern,"6 MetroTech Center, Brooklyn, NY 11201, USA",Indoor,40.6942903,-73.9869992
Project EATS,Non-commercial Farm,Stern,"336 W 37th St #1040, New York, NY 10018, USA",Outdoor,40.7546283,-73.9940702
Project EATS,Non-commercial Farm,Stern,"111 Sunken Garden Loop, New York, NY 10035, USA",Outdoor,40.7862839,-73.9322335
Project EATS,Non-commercial Farm,Stern,"2094 Pitkin Ave, Brooklyn, NY 11207, USA",Outdoor,40.671746,-73.8952429
Project EATS,Non-commercial Farm,Stern,"251 Chester St, Brooklyn, NY 11212, USA",Outdoor,40.66566590000001,-73.9102322
Project EATS,Non-commercial Farm,Stern,"115 Delancey St, New York, NY 10002, USA",Rooftop,40.7182681,-73.98814709999999
Project EATS,Non-commercial Farm,Stern,"203-9 Hollis Ave, St. Albans, NY 11412, USA",Outdoor,40.7067479,-73.7543989
Project EATS,Non-commercial Farm,Stern,"4422 3rd Ave., Bronx, NY 10456, USA",Rooftop,40.85337639999999,-73.89070079999999
Queens County Farm,Non-commercial Farm,Stern,"73-50 Little Neck Pkwy, Queens, NY 11004, USA",Outdoor,40.7481753,-73.7212387
"Rabbit’s Garden [CLOSED according to Cornell, email 7/6/2021]",Non-commercial Farm,Stern,"7 Navy Pier Ct, Staten Island, NY 10304, USA",Outdoor,40.6296235,-74.0738894
Randall’s Island Park Alliance’s Urban,Non-commercial Farm,Stern,"20 Randalls Island Park, New York, NY 10035, USA",Outdoor,40.7932254,-73.92424059999999
Red Hook Farms (formerly Added Value),Non-commercial Farm,Stern,"560 Columbia St, Brooklyn, NY 11231, USA",Outdoor,40.6721268,-74.0096507
Red Hook Farms (Green City Force),Non-commercial Farm,Stern,"30 Wolcott St, Brooklyn, NY 11231, USA",Outdoor,40.6762785,-74.0109904
"Rejuvenate Forever, LLC",Commercial Farm,Stern,"304 Junius St, Brooklyn, NY 11212, USA",Indoor,40.6672759,-73.9026365
Rise & Root Farm,Non-commercial Farm,Stern,"168 Meadow Ave, Chester, NY 10918, USA",Outdoor,41.3692981,-74.2584876
Riverpark Farm,Non-commercial Farm,Stern,"430 E 29th St, New York, NY 10016, USA",Outdoor,40.7399914,-73.9748912
Rooftop Reds,Commercial Farm,Stern,"299 Sands St Building 275, Brooklyn, NY 11201, USA",Rooftop,40.6996217,-73.9802229
Saratoga Urban Agro-Ecological Center,Non-commercial Farm,Stern,"1965 Fulton St, Brooklyn, NY 11233, USA",Outdoor,40.6787347,-73.9161523
Seed to Soil at Prime Produce,Non-commercial Farm,Stern,"424 W 54th St, New York, NY 10019, USA","Indoor, Outdoor",40.766308,-73.988406
"Sky Vegetables [CLOSED according to Cornell, email 7/6/2021]",Commercial Farm,Stern,"1071 Tinton Ave, Bronx, NY 10456, USA",Rooftop,40.825954,-73.9020214
Smallhold,Commercial Farm,Stern,"33 Carlton Ave, Brooklyn, NY 11205, USA",Indoor,40.6969461,-73.973338
Smiling Hogshead Ranch,Non-commercial Farm,Stern,"25-30 Skillman Ave, Queens, NY 11101, USA",Outdoor,40.7431417,-73.9433586
Square Roots ,Non-commercial Farm,Stern,"630 Flushing Ave, Brooklyn, NY 11206, USA",Indoor,40.69961300000001,-73.94792559999999
The Healing Garden @ Far Rock Farm,Non-commercial Farm,Stern,"385 B 45 St, Far Rockaway, NY 11691, USA",Outdoor,40.5952183,-73.77691589999999
The Youth Farm,Non-commercial Farm,Stern,"600 Kingston Ave, Brooklyn, NY 11203, USA",Outdoor,40.6593652,-73.9431462
Tranquility Farm,Non-commercial Farm,Stern,"659 Willoughby Ave, Brooklyn, NY 11206, USA",Outdoor,40.6947128,-73.94301990000001
Upward Farms,Commercial Farm,Stern,"234 Johnson Ave Fl 3, Brooklyn, NY 11206, USA",Indoor,40.7068127,-73.9393718
Victory Greens (Lenox Hill Hospital),Non-commercial Farm,Stern,"100 E 77th St, New York, NY 10075, USA",Rooftop,40.7739303,-73.9608921
We Are The New Farmers,Commercial Farm,Stern,"80 58th St, Brooklyn, NY 11220, USA",Indoor,40.645978,-74.0242396
1100 Block Bergen Street Community Garden,Community Garden,CUSP,"1107 Bergen St, Brooklyn, NY 11216, USA",Outdoor,40.676248,-73.9491505
227th Street Cambria Heights Community Garden,Community Garden,CUSP,"116-98 227th St, Cambria Heights, NY 11411, USA",Outdoor,40.6934056,-73.7341996
Back To Eden Community Garden,Community Garden,CUSP,"144-27 Lakewood Ave, Jamaica, NY 11435, USA",Outdoor,40.6899646,-73.8034799
Central Bainbridge Street Community Garden,Community Garden,CUSP,"277 Bainbridge St, Brooklyn, NY 11233, USA",Outdoor,40.681818,-73.92567
Classon Ful-Gate Block Association Garden,Community Garden,CUSP,"472 Classon Ave, Brooklyn, NY 11238, USA",Outdoor,40.6839613,-73.95927499999999
Clifton Place Block Association Garden,Community Garden,CUSP,"Clifton Place Garden, 289 Grand Ave, Brooklyn, NY 11238, USA",Outdoor,40.6876219,-73.9623639
Contented Hart Garden,Community Garden,CUSP,"Contented Hart Garden, 1475 Bushwick Ave, Brooklyn, NY 11207, USA",Outdoor,40.6835834,-73.9071969
David Foulke Memorial Garden,Community Garden,CUSP,"248 Bergen St, Brooklyn, NY 11217, USA",Outdoor,40.684045,-73.98438399999999
Dunton Civic Association Community Garden,Community Garden,CUSP,"143-1 Shore Ave, Jamaica, NY 11435, USA",Outdoor,40.6895442,-73.8057996
Euclid/Pine Street Block Association Garden,Community Garden,CUSP,"1308 Dumont Ave, Brooklyn, NY 11208, USA",Outdoor,40.6697359,-73.8697167
Garden of Angels,Community Garden,CUSP,"Garden of Angels, 978 Greene Ave, Brooklyn, NY 11221, USA",Outdoor,40.6907172,-73.9285882
Greene Garden,Community Garden,CUSP,"2 S Portland Ave, Brooklyn, NY 11217, USA",Outdoor,40.6895065,-73.9753144
Heaven’s Gate Garden,Community Garden,CUSP,"169 Hart St, Brooklyn, NY 11206, USA",Outdoor,40.69387090000001,-73.94464769999999
Hollenback Community Garden,Community Garden,CUSP,"Hollenback Community Garden, 460 Washington Ave, Brooklyn, NY 11238, USA",Outdoor,40.6851517,-73.9655092
John the Baptist Community Garden,Community Garden,CUSP,"10 Stuyvesant Ave, Brooklyn, NY 11221, USA",Outdoor,40.696375,-73.935059
La Finca Garden,Community Garden,CUSP,"1036 Flushing Ave, Brooklyn, NY 11237, USA",Outdoor,40.7041657,-73.92951819999999
Lincoln Berkeley Community Garden,Community Garden,CUSP,"20 Lincoln Pl, Brooklyn, NY 11217, USA",Outdoor,40.67729689999999,-73.9788315
Malcolm X Garden,Community Garden,CUSP,"33 112th St, Corona, NY 11368, USA",Outdoor,40.7570887,-73.8571733
Mama Dee’s Garden,Community Garden,CUSP,"1397 Bedford Ave, Brooklyn, NY 11216, USA",Outdoor,40.6752375,-73.95307989999999
McIntosh Neighborhood Garden,Community Garden,CUSP,"2516 McIntosh St, East Elmhurst, NY 11369, USA",Outdoor,40.7642893,-73.8696617
Merrick-Marsden Neighbors Association Garden,Community Garden,CUSP,"118-18 Merrick Blvd, Jamaica, NY 11434, USA",Outdoor,40.686157,-73.77418899999999
Merrick-Marsden Neighbors Association Garden II,Community Garden,CUSP,"170-26 Foch Blvd, Jamaica, NY 11434, USA",Outdoor,40.686343,-73.775863
Northside Community Garden,Community Garden,CUSP,"Northside Community Garden, 599 Driggs Ave, Brooklyn, NY 11211, USA",Outdoor,40.715893,-73.9574506
Patchen Avenue Garden,Community Garden,CUSP,"Patchen Avenue United Block Association, 49 Patchen Ave, Brooklyn, NY 11221, USA",Outdoor,40.6907177,-73.9273711
Q Gardens (Affiliate Garden),Community Garden,CUSP,"58 E 18th St, Brooklyn, NY 11226, USA",Outdoor,40.6497485,-73.96346590000002
Ralph Lincoln Service Center Garden,Community Garden,CUSP,"Ralph-Lincoln Service Center Garden, 1652-1654 St Johns Pl, Brooklyn, NY 11233, USA",Outdoor,40.669851,-73.923008
Rogers / Tilden / Veronica Place Garden,Community Garden,CUSP,"2601 Tilden Ave, Brooklyn, NY 11226, USA",Outdoor,40.646985,-73.95248
Serenity Community Garden,Community Garden,CUSP,"4402 Avenue L, Brooklyn, NY 11234, USA",Outdoor,40.6230202,-73.93291599999999
Sheffield Garden,Community Garden,CUSP,"Sheffield Garden, 673 Sheffield Ave, Brooklyn, NY 11207, USA",Outdoor,40.6606985,-73.8929692
St. John’s Place Renaissance Garden,Community Garden,CUSP,"St. John's Place Renaissance Garden, 1642 St Johns Pl, Brooklyn, NY 11233, USA",Outdoor,40.6699099,-73.9234214
St. Mark’s Avenue / Prospect Heights Community Garden,Community Garden,CUSP,"207 St Marks Ave, Brooklyn, NY 11238, USA",Outdoor,40.6787803,-73.9688871
The People’s Garden,Community Garden,CUSP,"1237 Broadway, Brooklyn, NY 11221, USA",Outdoor,40.691842,-73.925651
United Herkimer Garden Club,Community Garden,CUSP,"97 Herkimer St, Brooklyn, NY 11216, USA",Outdoor,40.679886,-73.950169
Westbrook Memorial Garden,Community Garden,CUSP,"Westbrook Memorial Garden, 1233 Pacific St, Brooklyn, NY 11216, USA",Outdoor,40.6779847,-73.9515435
Woodbine Street Block Association Garden,Community Garden,CUSP,"Woodbine Street Block Association Garden, 146 Woodbine St, Brooklyn, NY 11221, USA",Outdoor,40.6925595,-73.91644029999999
La Finca del Sur,Community Garden,CUSP,"110 E 138th St, Bronx, NY 10451, USA",Outdoor,40.8135922,-73.9318948
Grote Street Playground and Garden,Community Garden,CUSP,"2311 Southern Blvd, Bronx, NY 10460, USA",Outdoor,40.8509942,-73.8825971
Havemeyer Garden Association,Community Garden,CUSP,"535 Havemeyer Ave, Bronx, NY 10473, USA",Outdoor,40.8182732,-73.8454273
Angie Lee Gonzalez Park,Community Garden,CUSP,"1768 Bryant Ave, Bronx, NY 10460, USA",Outdoor,40.8366131,-73.88467539999999
Morning Glory Community Garden,Community Garden,CUSP,"1219 Hoe Ave, Bronx, NY 10459, USA",Outdoor,40.82933999999999,-73.891148
Kenton Hall Neighborhood Garden,Community Garden,CUSP,"305 E 165th St, Bronx, NY 10456, USA",Outdoor,40.828999,-73.914846
Elizabeth Barrett Browning Garden,Community Garden,CUSP,"2338 Walton Ave, Bronx, NY 10468, USA",Outdoor,40.859496,-73.90178
Kingsbridge Heights Community Center,Community Garden,CUSP,"3101 Kingsbridge Terrace, Bronx, NY 10463, USA",Outdoor,40.8776646,-73.9006799
Eagle Slope / Nueva Granja,Community Garden,CUSP,"586 Westchester Ave, Bronx, NY 10455, USA",Outdoor,40.8157338,-73.9113591
Garden of Life and Health,Community Garden,CUSP,"757 Melrose Ave, Bronx, NY 10451, USA",Outdoor,40.8215481,-73.9155791
Jackson Forest Community Garden,Community Garden,CUSP,"722 Home St, Bronx, NY 10456, USA",Outdoor,40.8281368,-73.90271109999999
Via Verde Rooftop Garden,Community Garden,CUSP,"700 Brook Ave, Bronx, NY 10455, USA",Outdoor,40.8189743,-73.91232959999999
Jacqueline Denise Davis (JDD) Garden,Community Garden,CUSP,"1024 Boston Rd, Bronx, NY 10456, USA",Outdoor,40.8258874,-73.9065724
St. Augustine Presbyterian Church,Community Garden,CUSP,"1013 Prospect Ave, Bronx, NY 10459, USA",Outdoor,40.823922,-73.900228
Wishing Well Community Garden,Community Garden,CUSP,"864 Rev James A Polite Ave, Bronx, NY 10459, USA",Outdoor,40.819513,-73.89863799999999
United We Stand / 138th Street Community Garden,Community Garden,CUSP,"635 E 138th St, Bronx, NY 10454, USA",Outdoor,40.8060578,-73.915024
Wanaqua Family Garden,Community Garden,CUSP,"460 E 136th St, Bronx, NY 10454, USA",Outdoor,40.806741,-73.9219066
Hope of Israel Senior Center,Community Garden,CUSP,"840 Gerard Ave, Bronx, NY 10451, USA",Outdoor,40.8265801,-73.9252381
Anthony Avenue Garden,Community Garden,CUSP,"2078 Anthony Ave, Bronx, NY 10457, USA",Outdoor,40.8528523,-73.90155650000001
Bainbridge Garden,Community Garden,CUSP,"2980 Bainbridge Ave, Bronx, NY 10458, USA",Outdoor,40.8709415,-73.8839447
Belmont Little Farmers,Community Garden,CUSP,"2485 Belmont Ave, Bronx, NY 10458, USA",Outdoor,40.857006,-73.884638
Bruckner Mott Haven Garden,Community Garden,CUSP,"179 Bruckner Blvd, Bronx, NY 10454, USA",Outdoor,40.8038087,-73.9145546
Cauldwell Youth Garden,Community Garden,CUSP,"551 Cauldwell Ave, Bronx, NY 10455, USA",Outdoor,40.814167,-73.911052
Davidson Avenue Community Garden,Community Garden,CUSP,"2387 Davidson Ave, Bronx, NY 10468, USA",Outdoor,40.8613392,-73.90357879999999
Fordham Bedford Lot Busters,Community Garden,CUSP,"Bainbridge Ave & E 193rd St, Bronx, NY 10458, USA",Outdoor,40.8640865,-73.8924176
Grant Avenue Block Association Garden,Community Garden,CUSP,"1062 Grant Ave, Bronx, NY 10456, USA",Outdoor,40.83029399999999,-73.916555
Jacquline (NO ‘E’) Denise Davis Garden,Community Garden,CUSP,"E 165th St & Boston Rd, Bronx, NY 10456, USA",Outdoor,40.8258061,-73.9070223
Manor Avenue Seniors Garden,Community Garden,CUSP,"1021 Manor Ave, Bronx, NY 10472, USA",Outdoor,40.8246506,-73.8756329
Mapes Avenue Garden,Community Garden,CUSP,"2124 Mapes Ave, Bronx, NY 10460, USA",Outdoor,40.8473461,-73.8849286
Neighborhood Advisory Committee Community Garden,Community Garden,CUSP,"360 E 151st St, Bronx, NY 10455, USA",Outdoor,40.81754220000001,-73.9185358
Palmas del Caribe,Community Garden,CUSP,"869 Eagle Ave, Bronx, NY 10456, USA",Outdoor,40.82202290000001,-73.90879129999999
Perry’s Garden,Community Garden,CUSP,"2139 Daly Ave, Bronx, NY 10460, USA",Outdoor,40.8459788,-73.8810603
Roberto Clemente Community Garden,Community Garden,CUSP,"1276 Shakespeare Ave, Bronx, NY 10452, USA",Outdoor,40.83896,-73.92238499999999
"Sun, Wind and Shade Oasis",Community Garden,CUSP,"955 Sherman Ave, Bronx, NY 10456, USA",Outdoor,40.8283692,-73.91942139999999
The William Rainey Garden,Community Garden,CUSP,"685 Beck St, Bronx, NY 10455, USA",Outdoor,40.81507,-73.90108099999999
Tremont Community Garden,Community Garden,CUSP,"1981 Lafontaine Ave, Bronx, NY 10457, USA",Outdoor,40.8471499,-73.8941885
Arbor House Hydroponic Farm,Community Garden,CUSP,"770 E 166th St, Bronx, NY 10456, USA",Outdoor,40.8261496,-73.9021039
Cheryl's Villa Garden,Community Garden,CUSP,"395 Kosciuszko St, Brooklyn, NY 11221, USA",Outdoor,40.6922856,-73.9388926
First Quincy Street Community Garden,Community Garden,CUSP,"397 Quincy St, Brooklyn, NY 11221, USA",Outdoor,40.6879009,-73.944383
Gates Harvest Garden,Community Garden,CUSP,"Victory Garden's Group, 953 Gates Ave, Brooklyn, NY 11221, USA",Outdoor,40.68905729999999,-73.9276467
Golde Harvent Garden,Community Garden,CUSP,"338 Throop Ave, Brooklyn, NY 11206, USA",Outdoor,40.6927289,-73.9430864
Hattie Carthan Community Garden,Community Garden,CUSP,"654A Lafayette Ave, Brooklyn, NY 11216, USA",Outdoor,40.6899323,-73.9488296
Kosciusko Garden/Learning Center,Community Garden,CUSP,"385 Kosciuszko St, Brooklyn, NY 11221, USA",Outdoor,40.692228,-73.939348
Spencer's Little Heaven,Community Garden,CUSP,"Spencer Pl, Brooklyn, NY 11216, USA",Outdoor,40.68131229999999,-73.95447089999999
Whole Neighborhood Garden,Community Garden,CUSP,"1007 Bedford Ave, Brooklyn, NY 11205, USA",Outdoor,40.68965499999999,-73.954802
Wyckoff-Bond Garden,Community Garden,CUSP,"189 Wyckoff St, Brooklyn, NY 11217, USA",Outdoor,40.6846279,-73.986744
Amboy Neighborhood Garden,Community Garden,CUSP,"199 Amboy St, Brooklyn, NY 11212, USA",Outdoor,40.6656,-73.913298
Brownsville Green Community Garden,Community Garden,CUSP,"93 New Lots Ave, Brooklyn, NY 11212, USA",Outdoor,40.658173,-73.9018059
ENY Success Garden,Community Garden,CUSP,"449 Williams Ave, Brooklyn, NY 11207, USA",Outdoor,40.6648803,-73.89749739999999
Georgia Avenue Community Garden,Community Garden,CUSP,"328 New Lots Ave, Brooklyn, NY 11207, USA",Outdoor,40.660996,-73.894443
Our Lady of the Presentation Garden,Community Garden,CUSP,"1661 St Marks Ave, Brooklyn, NY 11233, USA",Outdoor,40.6733684,-73.91184679999999
Phoenix Community Garden,Community Garden,CUSP,"2037 Fulton St, Brooklyn, NY 11233, USA",Outdoor,40.6785052,-73.9120885
Good Life Garden,Community Garden,CUSP,"46 Goodwin Pl, Brooklyn, NY 11221, USA",Outdoor,40.691243,-73.9236449
Moffat Street Garden,Community Garden,CUSP,"9 Moffat St, Brooklyn, NY 11207, USA",Outdoor,40.683557,-73.910674
1100 Bergen Street Community Garden,Community Garden,CUSP,"1100 Block Bergen Association Garden, 1101-1105 Bergen St, Brooklyn, NY 11216, USA",Outdoor,40.6762403,-73.94929970000001
196 Albany Avenue Park/Playground,Community Garden,CUSP,"1113 Prospect Ave, Brooklyn, NY 11218, USA",Outdoor,40.65567009999999,-73.9763801
Union Street Garden (Eastern Parkway Coalition Garden),Community Garden,CUSP,"1029 Union St, Brooklyn, NY 11225, USA",Outdoor,40.6701409,-73.9592565
Ponderosa Garden,Community Garden,CUSP,"664 E 105th St, Brooklyn, NY 11236, USA",Outdoor,40.6490524,-73.8969585
400 Montauk Avenue Block Association Community Garden,Community Garden,CUSP,"383 Montauk Ave., Brooklyn, NY 11208, USA",Outdoor,40.6688449,-73.8764221
Ashford Learning Garden,Community Garden,CUSP,"341 Ashford St, Brooklyn, NY 11207, USA",Outdoor,40.6740421,-73.8849468
Chestnut Street Community Garden,Community Garden,CUSP,"9 Chestnut St, Brooklyn, NY 11208, USA",Outdoor,40.687672,-73.87631739999999
Clara's Garden,Community Garden,CUSP,"579 Glenmore Ave, Brooklyn, NY 11207, USA",Outdoor,40.674405,-73.88904099999999
El Jardin Del Pueblo,Community Garden,CUSP,"2358 Pitkin Ave, Brooklyn, NY 11207, USA",Outdoor,40.6732073,-73.8853367
Elton Court Garden/UJIMA II,Community Garden,CUSP,"317 Elton St, Brooklyn, NY 11208, USA",Outdoor,40.67534920000001,-73.8836098
Family Community Garden,Community Garden,CUSP,"793 Cleveland St, Brooklyn, NY 11208, USA",Outdoor,40.665125,-73.88120959999999
Fannie Barnes Children's Playground,Community Garden,CUSP,"447 Sheffield Ave, Brooklyn, NY 11207, USA",Outdoor,40.6658772,-73.89507069999999
Glenmore Grown Garden,Community Garden,CUSP,"496 Glenmore Ave, Brooklyn, NY 11207, USA",Outdoor,40.673558,-73.891983
Linwood Street Garden (Pagan's Garden),Community Garden,CUSP,"580 Linwood St, Brooklyn, NY 11208, USA",Outdoor,40.6709892,-73.8820849
Nehemiah Ten Community Garden,Community Garden,CUSP,"565 Barbey St, Brooklyn, NY 11207, USA",Outdoor,40.6687027,-73.8862414
P.S. 4K Paradise Garden,Community Garden,CUSP,"676 Glenmore Ave, Brooklyn, NY 11207, USA",Outdoor,40.6746736,-73.8852694
The Ujima I Garden,Community Garden,CUSP,"660 New Jersey Ave, Brooklyn, NY 11207, USA",Outdoor,40.6628981,-73.8928931
Warwick Street Greenery Glow Community Garden,Community Garden,CUSP,"601 Warwick St, Brooklyn, NY 11207, USA",Outdoor,40.6686543,-73.8843657
East 43rd Street Block Association Community Garden,Community Garden,CUSP,"1087 E 43rd St, Brooklyn, NY 11210, USA",Outdoor,40.6285131,-73.93444319999999
Lentol Garden,Community Garden,CUSP,"484 Graham Ave, Brooklyn, NY 11222, USA",Outdoor,40.7199404,-73.94572889999999
Hull Street Community Garden,Community Garden,CUSP,"227 Hull St, Brooklyn, NY 11233, USA",Outdoor,40.680128,-73.90768
Greenspace @ President Street,Community Garden,CUSP,"222 5th Ave, Brooklyn, NY 11215, USA",Outdoor,40.675947,-73.981099
Vinegar Hill Community Garden,Community Garden,CUSP,"199 York St, Brooklyn, NY 11201, USA",Outdoor,40.701501,-73.982635
Hooper Grove,Community Garden,CUSP,"375 S 5th St, Brooklyn, NY 11211, USA",Outdoor,40.7079717,-73.9536183
Keap Fourth Community Garden,Community Garden,CUSP,"Keap Fourth Community Garden, 347 Keap St, Brooklyn, NY 11211, USA",Outdoor,40.7090425,-73.9547643
McCarren Park Demonstration Garden,Community Garden,CUSP,"457 Leonard St, Brooklyn, NY 11222, USA",Outdoor,40.7205677,-73.9487759
Placita Infantil at Nuestros Ninos Daycare,Community Garden,CUSP,"384 S 4th St, Brooklyn, NY 11211, USA",Outdoor,40.7079651,-73.9525654
Powers Street,Community Garden,CUSP,"Powers Street Garden, 278 Powers St, Brooklyn, NY 11211, USA",Outdoor,40.7126925,-73.939702
Sunshine Community Garden,Community Garden,CUSP,"99 McKibbin St, Brooklyn, NY 11206, USA",Outdoor,40.70524380000001,-73.94370750000002
UCC Youth Farm (Urban Farm),Community Garden,CUSP,"620 Schenck Ave, Brooklyn, NY 11207, USA",Outdoor,40.665269,-73.886815
Pink Houses Community Farm (Urban Farm),Community Garden,CUSP,"2632 Linden Blvd, Brooklyn, NY 11208, USA",Outdoor,40.6683993,-73.8669456
Fresh Farm,Community Garden,CUSP,"Livonia Ave & Hendrix St, Brooklyn, NY 11207, USA",Outdoor,40.665717,-73.887593
Wortman Avenue Community Garden,Community Garden,CUSP,"Autumn Ave & Wortman Ave, Brooklyn, NY 11208, USA",Outdoor,40.6641872,-73.8653073
Myrtle Village Green,Community Garden,CUSP,"638 Myrtle Ave, Brooklyn, NY 11205, USA",Outdoor,40.6940795,-73.95866629999999
Most Precious Blood Community Garden,Community Garden,CUSP,"32-23 36th St, Astoria, NY 11103, USA",Outdoor,40.7591107,-73.9214235
Corona Taxpayers Association Garden,Community Garden,CUSP,"52-2 102nd St, Corona, NY 11368, USA",Outdoor,40.7416852,-73.8600053
Long Island City Roots Community Garden,Community Garden,CUSP,"29-8 47th Ave, Long Island City, NY 11101, USA",Outdoor,40.7432427,-73.938388
Windmill Community Garden,Community Garden,CUSP,"39-22 29th St, Long Island City, NY 11101, USA",Outdoor,40.7531081,-73.9352408
Bay 84th Street Garden,Community Garden,CUSP,"318 Beach 84th St, Rockaway Beach, NY 11693, USA",Outdoor,40.5910201,-73.80986120000001
Edgemere Coalitio Garden,Community Garden,CUSP,"480 Beach 43rd St, Far Rockaway, NY 11691, USA",Outdoor,40.5983878,-73.7748068
Edgemere Farm & The Healing Garden at Far Rock Farm,Community Garden,CUSP,"385 B 45 St, Far Rockaway, NY 11691, USA",Outdoor,40.5952183,-73.77691589999999
Moore Jackson Cemetery and Community Garden,Community Garden,CUSP,"31-61 51st St, Woodside, NY 11377, USA",Outdoor,40.756088,-73.90794129999999
West Brighton Community Garden,Community Garden,CUSP,"Henderson Ave & Chappell St, Staten Island, NY 10310, USA",Outdoor,40.6366734,-74.1197533
Marian S. Heiskell Garden,Community Garden,CUSP,"315 W 48th St, New York, NY 10019, USA",Outdoor,40.7615255,-73.987697
El Sitio Feliz,Community Garden,CUSP,"203 E 104th St, New York, NY 10029, USA",Outdoor,40.790149,-73.944761
George Washington Carver Garden for Living,Community Garden,CUSP,"111 E 100th St, New York, NY 10029, USA",Outdoor,40.7888863,-73.949921
"Hope Community's Modesto ""Tin"" Flores Garden",Community Garden,CUSP,"Lexington Ave & E 104th St, New York, NY 10029, USA",Outdoor,40.7909485,-73.94723789999999
Pa'lante Garden,Community Garden,CUSP,"1651 Madison Ave, New York, NY 10029, USA",Outdoor,40.796162,-73.94731999999999
GrowNYC Teaching Garden at Governors Island,Community Garden,CUSP,"778 Enright Rd, Brooklyn, NY 11231, USA",Outdoor,40.6868406,-74.02049199999999
Luigi's Garden,Community Garden,CUSP,"227 W 115th St, New York, NY 10026, USA",Outdoor,40.8033498,-73.9543319
PS 76 Garden,Community Garden,CUSP,"203 W 120th St, New York, NY 10027, USA",Outdoor,40.806222,-73.951109
Generation X Cultural Garden,Community Garden,CUSP,"270 E 4th St, New York, NY 10009, USA",Outdoor,40.722578,-73.981466
Martin Luther King Jr. Community Park,Community Garden,CUSP,"216 E Broadway, New York, NY 10002, USA",Outdoor,40.7139246,-73.9848056
Miracle Garden,Community Garden,CUSP,"194 E 3rd St, New York, NY 10009, USA",Outdoor,40.722657,-73.983559
Parque de Tranquilidad,Community Garden,CUSP,"314 E 4th St, New York, NY 10009, USA",Outdoor,40.721864,-73.9796574
Riverpark Farm at Alexandria Center,Community Garden,CUSP,"430 E 29th St, New York, NY 10016, USA",Outdoor,40.7399914,-73.9748912
Randall's Island Urban Farm,Community Garden,CUSP,"Wards Meadow Loop, New York, NY 10035, USA",Outdoor,40.78225399999999,-73.9296607
City Hall Children's Garden at Tweed Courthouse,Community Garden,CUSP,"52 Chambers St, New York, NY 10007, USA",Outdoor,40.7134071,-74.00552569999999
Isabella Geriatric Center Garden,Community Garden,CUSP,"515 Audubon Ave, New York, NY 10040, USA",Outdoor,40.8545202,-73.92753429999999
Dorothy K. McGowan Memorial Garden,Community Garden,CUSP,"509 W 158th St, New York, NY 10032, USA",Outdoor,40.8338051,-73.9423363
Morris-Jumel Community Garden,Community Garden,CUSP,"455 W 162nd St, New York, NY 10032, USA",Outdoor,40.835752,-73.939078
Carver Community Garden,Community Garden,CUSP,"242 E 124th St, New York, NY 10035, USA",Outdoor,40.802085,-73.934702
Clayton Williams Community Garden,Community Garden,CUSP,"2351 Frederick Douglass Blvd, New York, NY 10027, USA",Outdoor,40.81107,-73.9509209
East Harlem Community Garden,Community Garden,CUSP,"433 E 117th St, New York, NY 10035, USA",Outdoor,40.7964013,-73.9335481
Five Star Garden,Community Garden,CUSP,"252 W 121st St, New York, NY 10027, USA",Outdoor,40.8070269,-73.9521254
Hope Steven Garden,Community Garden,CUSP,"1656 Amsterdam Ave, New York, NY 10031, USA",Outdoor,40.823549,-73.949265
La Perla Garden,Community Garden,CUSP,"78 W 105th St, New York, NY 10025, USA",Outdoor,40.798204,-73.9631
Mo’ Pals Garden,Community Garden,CUSP,"545 W 147th St, New York, NY 10031, USA",Outdoor,40.8275532,-73.9485768
Papo’s Garden,Community Garden,CUSP,"220 E 119th St, New York, NY 10035, USA",Outdoor,40.7992326,-73.93766440000002
Serenity Garden,Community Garden,CUSP,"522 W 146th St, New York, NY 10031, USA",Outdoor,40.826144,-73.9483
11 Street Community Garden,Community Garden,CUSP,"422 E 11th St, New York, NY 10009, USA",Outdoor,40.7287298,-73.9828691
Albert’s Garden,Community Garden,CUSP,"18 E 2nd St, New York, NY 10003, USA",Outdoor,40.72539080000001,-73.9909654
All People’s Garden,Community Garden,CUSP,"295 E 3rd St, New York, NY 10009, USA",Outdoor,40.7214355,-73.9795496
Lower East Side People Care,Community Garden,CUSP,"25 Rutgers St, New York, NY 10002, USA",Outdoor,40.7130081,-73.98982219999999
P233Q@42,School Garden,GrowNYC,"488 Beach 66th St, Arverne, NY 11692, USA",Outdoor,40.594435,-73.7949455
PS811Q@ Queens High School of Teaching,School Garden,GrowNYC,"74-20 Commonwealth Blvd, Queens, NY 11426, USA",Outdoor,40.7444247,-73.72893789999999
New York City Children's Center - Queens,School Garden,GrowNYC,"74-3 Commonwealth Blvd, Jamaica, NY 11426, USA",Outdoor,40.7458334,-73.7264836
School Garden 076,School Garden,GrowNYC,"770 Grote St, Bronx, NY 10460, USA",Outdoor,40.8504842,-73.8838411
Jonathan D. Hyatt,School Garden,GrowNYC,"333 E 135th St, Bronx, NY 10454, USA",Outdoor,40.8082435,-73.92574069999999
Bronx International High School,School Garden,GrowNYC,"1110 Boston Rd, Bronx, NY 10456, USA",Outdoor,40.8273033,-73.9045097
Family Life Academy Charter School II,School Garden,GrowNYC,"296 E 140th St, Bronx, NY 10454, USA",Outdoor,40.811454,-73.9250059
Lucero Elementary School,School Garden,GrowNYC,"1425 Walton Ave, Bronx, NY 10452, USA",Outdoor,40.8403454,-73.91572839999999
Bronx Academy of Promise Charter School,School Garden,GrowNYC,"1349 Inwood Ave, Bronx, NY 10452, USA",Outdoor,40.8395479,-73.919862
Bronx Lighthouse Charter School,School Garden,GrowNYC,"1001 Intervale Ave, Bronx, NY 10459, USA",Outdoor,40.8233095,-73.8970514
Francisco Oller,School Garden,GrowNYC,"1550 Crotona Park E, Bronx, NY 10460, USA",Outdoor,40.8363733,-73.8927625
Claremont,School Garden,GrowNYC,"1537 Washington Ave, Bronx, NY 10457, USA",Outdoor,40.8385594,-73.9030255
Sedgwick,School Garden,GrowNYC,"1771 Popham Ave, Bronx, NY 10453, USA",Outdoor,40.8517883,-73.91862069999999
Samuel Gompers Career and Technical Education High School,School Garden,GrowNYC,"455 Southern Blvd, Bronx, NY 10455, USA",Outdoor,40.8104034,-73.9073691
The Urban Assembly Bronx Academy of Letters,School Garden,GrowNYC,"339 Morris Ave, Bronx, NY 10451, USA",Outdoor,40.81366,-73.92599899999999
"Harlem Renaissance High School

",School Garden,GrowNYC,"1260 Franklin Ave, Bronx, NY 10456, USA",Outdoor,40.8308954,-73.9023857
Crotona Academy High School,School Garden,GrowNYC,"639 St Ann's Ave, Bronx, NY 10455, USA",Outdoor,40.8169466,-73.9120057
Comprehensive Model School Project M.S. 327,School Garden,GrowNYC,"1501 Jerome Ave, Bronx, NY 10452, USA",Outdoor,40.8429988,-73.9162336
Mount Eden Children's Academy,School Garden,GrowNYC,"1501 Jerome Ave, Bronx, NY 10452, USA",Outdoor,40.8429988,-73.9162336
Mott Haven Academy Charter School,School Garden,GrowNYC,"170 Brown Pl, Bronx, NY 10454, USA",Outdoor,40.8063158,-73.9208724
School Garden 306,School Garden,GrowNYC,"40 W Tremont Ave, Bronx, NY 10453, USA",Outdoor,40.8513941,-73.9108139
Luisa Dessus Cruz,School Garden,GrowNYC,"681 Kelly St, Bronx, NY 10455, USA",Outdoor,40.81591179999999,-73.9016736
Arturo A. Schomburg Satellite Academy Bronx,School Garden,GrowNYC,"1010 Rev James A Polite Ave, Bronx, NY 10459, USA",Outdoor,40.8232858,-73.89873419999999
The Family School,School Garden,GrowNYC,"1116 Sheridan Ave, Bronx, NY 10456, USA",Outdoor,40.8321305,-73.9175656
Bronx Leadership Academy High School,School Garden,GrowNYC,"1710 Webster Ave, Bronx, NY 10457, USA",Outdoor,40.8434287,-73.90310939999999
Success Academy Charter School - Bronx 2,School Garden,GrowNYC,"450 St Pauls Pl, Bronx, NY 10456, USA",Outdoor,40.8360107,-73.9049407
Bronx High School for Medical Science,School Garden,GrowNYC,"240 E 172nd St, Bronx, NY 10457, USA",Outdoor,40.8397925,-73.9113057
Bronx High School of Business,School Garden,GrowNYC,"240 E 172nd St, Bronx, NY 10457, USA",Outdoor,40.8397925,-73.9113057
University Heights Secondary School,School Garden,GrowNYC,"701 St Ann's Ave, Bronx, NY 10455, USA",Outdoor,40.8179909,-73.9116769
The William Lloyd Garrison,School Garden,GrowNYC,"250 E 156th St, Bronx, NY 10451, USA",Outdoor,40.8224876,-73.9215612
Benjamin Franklin,School Garden,GrowNYC,"450 St Pauls Pl, Bronx, NY 10456, USA",Outdoor,40.8361368,-73.9048821
Inocensio Casanova,School Garden,GrowNYC,"660 Fox St, Bronx, NY 10455, USA",Outdoor,40.8138781,-73.9003875
Jonas Bronck,School Garden,GrowNYC,"165 Brown Pl, Bronx, NY 10454, USA",Outdoor,40.8063033,-73.9214917
Fannie Lou Hamer Freedom High School,School Garden,GrowNYC,"1021 Jennings St, Bronx, NY 10460, USA",Outdoor,40.8311242,-73.88568839999999
Academy for Career and Living Skills,School Garden,GrowNYC,"1434 Longfellow Ave, Bronx, NY 10459, USA",Outdoor,40.8302321,-73.8874324
School Garden 010,School Garden,GrowNYC,"2750 Lafayette Ave, Bronx, NY 10465, USA",Outdoor,40.827175,-73.8293166
The Wilton School,School Garden,GrowNYC,"510 E 141st St, Bronx, NY 10454, USA",Outdoor,40.8091669,-73.91788710000002
KIPP Academy Charter School,School Garden,GrowNYC,"250 E 156th St, Bronx, NY 10451, USA",Outdoor,40.8224876,-73.9215612
Rafael Hernandez Dual Language Magnet School,School Garden,GrowNYC,"1220 Gerard Ave, Bronx, NY 10452, USA",Outdoor,40.8354825,-73.91972419999999
Family Life Academy Charter School,School Garden,GrowNYC,"14 W 170th St, Bronx, NY 10452, USA",Outdoor,40.8402845,-73.9186483
School Garden 017,School Garden,GrowNYC,"778 Forest Ave, Bronx, NY 10456, USA",Outdoor,40.8186399,-73.9053941
Grant Avenue Elementary School,School Garden,GrowNYC,"250 E 164th St, Bronx, NY 10456, USA",Outdoor,40.8280778,-73.91751959999999
The New Children's School,School Garden,GrowNYC,"2151 Washington Ave, Bronx, NY 10457, USA",Outdoor,40.8533809,-73.8947836
Willis Avenue,School Garden,GrowNYC,"383 E 139th St, Bronx, NY 10454, USA",Outdoor,40.8104968,-73.9226177
School of Performing Arts,School Garden,GrowNYC,"977 Fox St, Bronx, NY 10459, USA",Outdoor,40.8220835,-73.8940382
Melrose School,School Garden,GrowNYC,"758 Courtlandt Ave, Bronx, NY 10451, USA",Outdoor,40.8216206,-73.91683069999999
Girls Preparatory Charter School of the Bronx,School Garden,GrowNYC,"681 Kelly St, Bronx, NY 10455, USA",Outdoor,40.81591179999999,-73.9016736
Arturo Toscanini,School Garden,GrowNYC,"1000 Teller Ave, Bronx, NY 10456, USA",Outdoor,40.8279,-73.9141928
Crescent,School Garden,GrowNYC,"2111 Crotona Ave, Bronx, NY 10457, USA",Outdoor,40.84868900000001,-73.8889039
New York City Montessori Charter School,School Garden,GrowNYC,"423 E 138th St, Bronx, NY 10454, USA",Outdoor,40.8089129,-73.9217457
Performance School,School Garden,GrowNYC,"750 Concourse Village W, Bronx, NY 10451, USA",Outdoor,40.8231334,-73.92284719999999
School Garden 211,School Garden,GrowNYC,"1919 Prospect Ave, Bronx, NY 10457, USA",Outdoor,40.8437691,-73.8903279
Bronx Collegiate Academy,School Garden,GrowNYC,"240 E 172nd St, Bronx, NY 10457, USA",Outdoor,40.8397925,-73.9113057
Frederick Douglass Academy V. Middle School,School Garden,GrowNYC,"2111 Crotona Ave, Bronx, NY 10457, USA",Outdoor,40.84868900000001,-73.8889039
John Peter Zenger,School Garden,GrowNYC,"502 Morris Ave, Bronx, NY 10451, USA",Outdoor,40.8162658,-73.9225258
School for Environmental Citizenship,School Garden,GrowNYC,"125 E 181st St, Bronx, NY 10453, USA",Outdoor,40.8556664,-73.90323529999999
DreamYard Preparatory School,School Garden,GrowNYC,"240 E 172nd St, Bronx, NY 10457, USA",Outdoor,40.8397925,-73.9113057
School of Higher Expectations,School Garden,GrowNYC,"1001 Jennings St, Bronx, NY 10460, USA",Outdoor,40.8312555,-73.8866072
Academy for Language and Technology,School Garden,GrowNYC,"1700 Macombs Rd, Bronx, NY 10453, USA",Outdoor,40.8494924,-73.9156962
School Garden 226,School Garden,GrowNYC,"1950 Sedgwick Ave, Bronx, NY 10453, USA",Outdoor,40.855172,-73.9162336
Joseph R. Drake,School Garden,GrowNYC,"1290 Spofford Ave, Bronx, NY 10474, USA",Outdoor,40.8142282,-73.886889
Author's Academy,School Garden,GrowNYC,"1260 Franklin Ave, Bronx, NY 10456, USA",Outdoor,40.8308954,-73.9023857
Baychester Middle School,School Garden,GrowNYC,"3750 Baychester Ave, Bronx, NY 10466, USA",Outdoor,40.8861491,-73.8404879
High School for Energy and Technology,School Garden,GrowNYC,"2474 Crotona Ave, Bronx, NY 10458, USA",Outdoor,40.8554112,-73.8824863
Henry Hudson,School Garden,GrowNYC,"1111 Pugsley Ave, Bronx, NY 10472, USA",Outdoor,40.8291079,-73.85691039999999
The New School for Leadership and Journalism,School Garden,GrowNYC,"120 W 231st St, Bronx, NY 10463, USA",Outdoor,40.8756546,-73.90162769999999
East Fordham Academy for the Arts,School Garden,GrowNYC,"120 E 184th St, Bronx, NY 10468, USA",Outdoor,40.8594929,-73.9004606
Pelham Gardens Middle School,School Garden,GrowNYC,"2545 Gunther Ave, Bronx, NY 10469, USA",Outdoor,40.864189,-73.8365765
City Island,School Garden,GrowNYC,"200 City Island Ave, Bronx, NY 10464, USA",Outdoor,40.84379,-73.7846911
Dr. Selman Waksman,School Garden,GrowNYC,"850 Baychester Ave, Bronx, NY 10475, USA",Outdoor,40.8751476,-73.8329925
School Garden 054,School Garden,GrowNYC,"2703 Webster Ave, Bronx, NY 10458, USA",Outdoor,40.8649138,-73.8878434
Concourse Village Elementary School,School Garden,GrowNYC,"750 Concourse Village W, Bronx, NY 10451, USA",Outdoor,40.8231334,-73.92284719999999
Renaissance High School for Musical Theater & Technology,School Garden,GrowNYC,"3000 E Tremont Ave, Bronx, NY 10461, USA",Outdoor,40.8398166,-73.83795490000001
Tech International Charter School,School Garden,GrowNYC,"3120 Corlear Ave, Bronx, NY 10463, USA",Outdoor,40.8808362,-73.9070856
"The Marie Curie School for Medicine, Nursing, and Health Professions",School Garden,GrowNYC,"120 W 231st St, Bronx, NY 10463, USA",Outdoor,40.8756546,-73.90162769999999
Bronx Charter School for Better Learning,School Garden,GrowNYC,"3740 Baychester Ave, Bronx, NY 10466, USA",Outdoor,40.8846683,-73.8394442
DeWitt Clinton High School,School Garden,GrowNYC,"100 W Mosholu Pkwy S, Bronx, NY 10468, USA",Outdoor,40.8812165,-73.8875851
The Equality Charter School,School Garden,GrowNYC,"4140 Hutchinson River Pkwy E, Bronx, NY 10475, USA",Outdoor,40.8643078,-73.82398640000001
Herbert H. Lehman High School,School Garden,GrowNYC,"3000 E Tremont Ave, Bronx, NY 10461, USA",Outdoor,40.8398166,-73.83795490000001
Jonathan Levin High School for Media and Communications,School Garden,GrowNYC,"240 E 172nd St, Bronx, NY 10457, USA",Outdoor,40.8397925,-73.9113057
The Bronx School of Young Leaders,School Garden,GrowNYC,"40 W Tremont Ave, Bronx, NY 10453, USA",Outdoor,40.8513941,-73.9108139
Mott Hall V,School Garden,GrowNYC,"1551 E 172nd St, Bronx, NY 10472, USA",Outdoor,40.8323283,-73.87652039999999
Isaac Clason,School Garden,GrowNYC,"800 Taylor Ave, Bronx, NY 10473, USA",Outdoor,40.82189169999999,-73.8626271
School Garden 207,School Garden,GrowNYC,"3030 Godwin Terrace, Bronx, NY 10463, USA",Outdoor,40.8781939,-73.9063216
School Garden 097,School Garden,GrowNYC,"1375 Mace Ave, Bronx, NY 10469, USA",Outdoor,40.8631683,-73.8469144
"P.O.George J. Werdann, III",School Garden,GrowNYC,"3050 Webster Ave, Bronx, NY 10467, USA",Outdoor,40.8696205,-73.87907349999999
Urban Assembly Academy of Civic Engagement,School Garden,GrowNYC,"650 Hollywood Ave, Bronx, NY 10465, USA",Outdoor,40.8269794,-73.8182885
Stephen McSweeney School,School Garden,GrowNYC,"2697 Westchester Ave, Bronx, NY 10461, USA",Outdoor,40.8427217,-73.8388739
School for Excellence,School Garden,GrowNYC,"1110 Boston Rd, Bronx, NY 10456, USA",Outdoor,40.8273033,-73.9045097
Bronx Lab School,School Garden,GrowNYC,"800 E Gun Hill Rd, Bronx, NY 10467, USA",Outdoor,40.8751267,-73.8617246
Spuyten Duyvil,School Garden,GrowNYC,"660 W 236th St, Bronx, NY 10463, USA",Outdoor,40.8870378,-73.9141927
@Byron,School Garden,GrowNYC,"3540 Bivona St, Bronx, NY 10475, USA",Outdoor,40.88263999999999,-73.83224609999999
Bronx Writing Academy,School Garden,GrowNYC,"270 E 167th St, Bronx, NY 10456, USA",Outdoor,40.83294009999999,-73.9140961
Roland Patterson,School Garden,GrowNYC,"275 Harlem River Park Bridge, Bronx, NY 10453, USA",Outdoor,40.8526349,-73.9212701
"H.E.R.O. High (Health, Education, and Research Occupations High School)",School Garden,GrowNYC,"455 Southern Blvd, Bronx, NY 10455, USA",Outdoor,40.8104034,-73.9073691
Bronx Theatre High School,School Garden,GrowNYC,"99 Terrace View Ave, Bronx, NY 10463, USA",Outdoor,40.8771416,-73.91268389999999
Journey Prep School,School Garden,GrowNYC,"560 Thieriot Ave, Bronx, NY 10473, USA",Outdoor,40.8168239,-73.8606057
Truman High School,School Garden,GrowNYC,"850 Baychester Ave, Bronx, NY 10475, USA",Outdoor,40.8751476,-73.8329925
J. M. Rapport School Career Development,School Garden,GrowNYC,"470 Jackson Ave, Bronx, NY 10455, USA",Outdoor,40.81117320000001,-73.90925229999999
Abram Stevens Hewitt,School Garden,GrowNYC,"750 Prospect Ave, Bronx, NY 10455, USA",Outdoor,40.8176339,-73.9018573
Belmont,School Garden,GrowNYC,"690 E 183rd St, Bronx, NY 10458, USA",Outdoor,40.8518895,-73.88596410000001
Astor Collegiate Academy,School Garden,GrowNYC,"925 Astor Ave, Bronx, NY 10469, USA",Outdoor,40.8602833,-73.8603759
Young Leaders Elementary School,School Garden,GrowNYC,"468 E 140th St, Bronx, NY 10454, USA",Outdoor,40.8091409,-73.92013759999999
Bilingual School,School Garden,GrowNYC,"811 E 149th St, Bronx, NY 10455, USA",Outdoor,40.8128394,-73.9055319
Courtlandt School,School Garden,GrowNYC,"335 E 152nd St, Bronx, NY 10451, USA",Outdoor,40.8193083,-73.9192649
The Vida Bogart School for All Children,School Garden,GrowNYC,"1330 Bristow St, Bronx, NY 10459, USA",Outdoor,40.8317736,-73.8942783
Cornerstone Academy for Social Action,School Garden,GrowNYC,"3441 Steenwick Ave, Bronx, NY 10475, USA",Outdoor,40.8831455,-73.83078700000002
Donald Hertz,School Garden,GrowNYC,"950 Rhinelander Ave, Bronx, NY 10462, USA",Outdoor,40.8492587,-73.85886099999999
School Garden 089,School Garden,GrowNYC,"980 Mace Ave, Bronx, NY 10469, USA",Outdoor,40.8626481,-73.8594112
Garret A. Morgan,School Garden,GrowNYC,"1245 Washington Ave, Bronx, NY 10456, USA",Outdoor,40.8319785,-73.9070476
Robert J. Christen,School Garden,GrowNYC,"5550 Riverdale Ave, Bronx, NY 10471, USA",Outdoor,40.9035441,-73.90481539999999
P186X @140,School Garden,GrowNYC,"750 Jennings St, Bronx, NY 10459, USA",Outdoor,40.831618,-73.8980449
Bronx Collaborative High School,School Garden,GrowNYC,"100 W Mosholu Pkwy S, Bronx, NY 10468, USA",Outdoor,40.8812165,-73.8875851
Urban Science Academy,School Garden,GrowNYC,"1000 Teller Ave, Bronx, NY 10456, USA",Outdoor,40.8279,-73.9141928
New Visions Charter High School for Advanced Math and Science II,School Garden,GrowNYC,"900 Tinton Ave, Bronx, NY 10456, USA",Outdoor,40.82185070000001,-73.9028489
School Garden 396,School Garden,GrowNYC,"1930 Andrews Ave S, Bronx, NY 10453, USA",Outdoor,40.854392,-73.9129267
The Highbridge Green School,School Garden,GrowNYC,"200 W 167th St, Bronx, NY 10452, USA",Outdoor,40.8380483,-73.9279911
Academy for Scholarship and Entrepreneurship: A College Board School,School Garden,GrowNYC,"921 E 228th St, Bronx, NY 10466, USA",Outdoor,40.8880644,-73.8527494
Collegiate Institute for Math and Science,School Garden,GrowNYC,"925 Astor Ave, Bronx, NY 10469, USA",Outdoor,40.8602833,-73.8603759
The Urban Assembly Academy for History and Citizenship for Young Men,School Garden,GrowNYC,"240 E 172nd St, Bronx, NY 10457, USA",Outdoor,40.8397925,-73.9113057
Throop,School Garden,GrowNYC,"2750 Throop Ave, Bronx, NY 10469, USA",Outdoor,40.8665502,-73.8505965
Bronx Design and Construction Academy,School Garden,GrowNYC,"333 E 151st St, Bronx, NY 10451, USA",Outdoor,40.8184997,-73.9195405
School Garden 188,School Garden,GrowNYC,"770 Grote St, Bronx, NY 10460, USA",Outdoor,40.8504842,-73.8838411
Jordan L. Mott,School Garden,GrowNYC,"270 E 167th St, Bronx, NY 10456, USA",Outdoor,40.83294009999999,-73.9140961
School Garden 277,School Garden,GrowNYC,"519 St Ann's Ave, Bronx, NY 10455, USA",Outdoor,40.8133253,-73.9137994
Bronx Haven High School,School Garden,GrowNYC,"333 E 151st St, Bronx, NY 10451, USA",Outdoor,40.8184997,-73.9195405
Urban Assembly School for Careers in Sports,School Garden,GrowNYC,"730 Concourse Village W, Bronx, NY 10451, USA",Outdoor,40.8219741,-73.9230741
Rose E. Scala,School Garden,GrowNYC,"3040 Roberts Ave, Bronx, NY 10461, USA",Outdoor,40.8455954,-73.8296383
Albert G. Oliver,School Garden,GrowNYC,"1535 Story Ave, Bronx, NY 10473, USA",Outdoor,40.8220927,-73.8769604
School Garden 107,School Garden,GrowNYC,"1695 Seward Ave, Bronx, NY 10473, USA",Outdoor,40.8187805,-73.8684748
Longwood Academy of Discovery,School Garden,GrowNYC,"888 Rev James A Polite Ave, Bronx, NY 10459, USA",Outdoor,40.8201293,-73.8986342
The Academy of the Arts,School Garden,GrowNYC,"888 Rev James A Polite Ave, Bronx, NY 10459, USA",Outdoor,40.8201293,-73.8986342
The Hunts Point School,School Garden,GrowNYC,"730 Bryant Ave, Bronx, NY 10474, USA",Outdoor,40.8157147,-73.8853003
Crotona Park West,School Garden,GrowNYC,"1701 Fulton Ave, Bronx, NY 10457, USA",Outdoor,40.8411563,-73.8983267
Highbridge,School Garden,GrowNYC,"1257 Ogden Ave, Bronx, NY 10452, USA",Outdoor,40.8397377,-73.9257866
Franz Siegel,School Garden,GrowNYC,"261 E 163rd St, Bronx, NY 10451, USA",Outdoor,40.8275639,-73.9179413
Dr Marjorie H Dunbar,School Garden,GrowNYC,"175 W 166th St, Bronx, NY 10452, USA",Outdoor,40.836097,-73.9283585
Arthur A. Schomburg,School Garden,GrowNYC,"2075 Webster Ave, Bronx, NY 10457, USA",Outdoor,40.8518013,-73.8988258
The Walton Avenue School,School Garden,GrowNYC,"1425 Walton Ave, Bronx, NY 10452, USA",Outdoor,40.8403454,-73.91572839999999
School for Excellence,School Garden,GrowNYC,"1110 Boston Rd, Bronx, NY 10456, USA",Outdoor,40.8273033,-73.9045097
"Bronx School for Law, Government and Justice",School Garden,GrowNYC,"244 E 163rd St, Bronx, NY 10451, USA",Outdoor,40.827572,-73.9189269
High School for Violin and Dance,School Garden,GrowNYC,"1110 Boston Rd, Bronx, NY 10456, USA",Outdoor,40.8273033,-73.9045097
Ryer Avenue Elementary School,School Garden,GrowNYC,"230 E 183rd St, Bronx, NY 10458, USA",Outdoor,40.8568025,-73.8989065
Edgar Allan Poe,School Garden,GrowNYC,"279 E 196th St, Bronx, NY 10458, USA",Outdoor,40.8669496,-73.8906272
Norwood Heights,School Garden,GrowNYC,"3177 Webster Ave, Bronx, NY 10467, USA",Outdoor,40.8723761,-73.87599569999999
Bedford Park Elementary School,School Garden,GrowNYC,"3177 Webster Ave, Bronx, NY 10467, USA",Outdoor,40.8723761,-73.87599569999999
Kingsbridge Heights,School Garden,GrowNYC,"2756 Reservoir Ave, Bronx, NY 10468, USA",Outdoor,40.8698472,-73.8982631
Kings College School,School Garden,GrowNYC,"3530 Kings College Pl, Bronx, NY 10467, USA",Outdoor,40.88041399999999,-73.8753985
Theatre Arts Production Company School (TAPCo),School Garden,GrowNYC,"2225 Webster Ave, Bronx, NY 10457, USA",Outdoor,40.8546548,-73.8970362
ACADEMY FOR PERSONAL LEADERSHIP AND EXCELLENCE,School Garden,GrowNYC,"120 E 184th St, Bronx, NY 10468, USA",Outdoor,40.8594929,-73.9004606
Bronx High School of Science,School Garden,GrowNYC,"75 W 205th St, Bronx, NY 10468, USA",Outdoor,40.8785082,-73.8908792
Public School 68 ,School Garden,GrowNYC,"4011 Monticello Ave, Bronx, NY 10466, USA",Outdoor,40.8914828,-73.838736
Richard Rodgers,School Garden,GrowNYC,"650 Waring Ave, Bronx, NY 10467, USA",Outdoor,40.86073,-73.8689026
Sen Abraham Bernstein,School Garden,GrowNYC,"725 Brady Ave, Bronx, NY 10462, USA",Outdoor,40.8527674,-73.8664014
The Castle Hill,School Garden,GrowNYC,"1560 Purdy St, Bronx, NY 10462, USA",Outdoor,40.8384278,-73.8529844
Cornerstone Academy for Social Action Middle School (CASA),School Garden,GrowNYC,"3441 Steenwick Ave, Bronx, NY 10475, USA",Outdoor,40.8831455,-73.83078700000002
Linden Tree Elementary School,School Garden,GrowNYC,"1560 Purdy St, Bronx, NY 10462, USA",Outdoor,40.8384278,-73.8529844
West Farms,School Garden,GrowNYC,"1000 E Tremont Ave, Bronx, NY 10460, USA",Outdoor,40.84056630000001,-73.882082
Fairmont Neighborhood School,School Garden,GrowNYC,"1550 Vyse Ave, Bronx, NY 10460, USA",Outdoor,40.8342488,-73.88715119999999
Samara Community School,School Garden,GrowNYC,"1550 Vyse Ave, Bronx, NY 10460, USA",Outdoor,40.8342488,-73.88715119999999
School Garden 536,School Garden,GrowNYC,"1827 Archer St, Bronx, NY 10460, USA",Outdoor,40.8380718,-73.865843
Lewis and Clark School,School Garden,GrowNYC,"2555 Tratman Ave, Bronx, NY 10461, USA",Outdoor,40.8404005,-73.84442729999999
Family Life Academy Charter School III,School Garden,GrowNYC,"296 E 140th St, Bronx, NY 10454, USA",Outdoor,40.811454,-73.9250059
Dr. Richard Izquierdo Health and Science Charter School,School Garden,GrowNYC,"800 Home St, Bronx, NY 10456, USA",Outdoor,40.8273875,-73.9008013
Bronx Preparatory Charter School,School Garden,GrowNYC,"3872 3rd Ave., Bronx, NY 10457, USA",Outdoor,40.8391702,-73.90004979999999
@Ittleson Day Treatment ,School Garden,GrowNYC,"5050 Iselin Ave, Bronx, NY 10471, USA",Outdoor,40.8993467,-73.90489079999999
Walter Damrosch School,School Garden,GrowNYC,"750 Jennings St, Bronx, NY 10459, USA",Outdoor,40.831618,-73.8980449
Atmosphere Academy,School Garden,GrowNYC,"22 Marble Hill Ave, Bronx, NY 10463, USA",Outdoor,40.8751344,-73.910245
@855 The Bronx School for Continuous Learners,School Garden,GrowNYC,"577 E 139th St, Bronx, NY 10454, USA",Outdoor,40.8072883,-73.9161446
Bronxworks,School Garden,GrowNYC,"1130 Grand Concourse, Bronx, NY 10456, USA",Outdoor,40.8326862,-73.9187597
PS 188x@HS790x,School Garden,GrowNYC,"730 Concourse Village W, Bronx, NY 10451, USA",Outdoor,40.8219741,-73.9230741
@ Monroe Annex,School Garden,GrowNYC,"1551 E 172nd St, Bronx, NY 10472, USA",Outdoor,40.8323283,-73.87652039999999
School Garden 076,School Garden,GrowNYC,"770 Grote St, Bronx, NY 10460, USA",Outdoor,40.8504842,-73.8838411
School Garden 076,School Garden,GrowNYC,"770 Grote St, Bronx, NY 10460, USA",Outdoor,40.8504842,-73.8838411
P721X@P368X,School Garden,GrowNYC,"2975 Tibbett Ave, Bronx, NY 10463, USA",Outdoor,40.8790763,-73.91129529999999
Luis Llorens Elementary School,School Garden,GrowNYC,"1155 Cromwell Ave, Bronx, NY 10452, USA",Outdoor,40.8349464,-73.92326070000001
723@189,School Garden,GrowNYC,"3441 Steenwick Ave, Bronx, NY 10475, USA",Outdoor,40.8831455,-73.83078700000002
School Garden 595,School Garden,GrowNYC,"700 E 179th St, Bronx, NY 10457, USA",Outdoor,40.8463129,-73.8895023
School Garden 583,School Garden,GrowNYC,"1028 White Plains Rd, Bronx, NY 10472, USA",Outdoor,40.8270195,-73.85968679999999
School of Continuous Learners @ 339X,School Garden,GrowNYC,"1600 Webster Ave, Bronx, NY 10457, USA",Outdoor,40.8404716,-73.9039243
Mid Bronx CCRP Head Start - Grand Concourse,School Garden,GrowNYC,"1125 Grand Concourse, Bronx, NY 10452, USA",Outdoor,40.8328187,-73.9202294
Sheltering Arms Children and Family Services,School Garden,GrowNYC,"565 Morris Ave, Bronx, NY 10451, USA",Outdoor,40.818151,-73.9226946
Andrew Jackson,School Garden,GrowNYC,"100 Noll St, Brooklyn, NY 11206, USA",Outdoor,40.701515,-73.9322622
Lyndon B. Johnson,School Garden,GrowNYC,"763 Knickerbocker Ave, Brooklyn, NY 11207, USA",Outdoor,40.6933864,-73.9082878
James P. Sinnott,School Garden,GrowNYC,"370 Fountain Ave, Brooklyn, NY 11208, USA",Outdoor,40.6698815,-73.87434189999999
Ronald Edmonds Learning Center II,School Garden,GrowNYC,"430 Howard Ave, Brooklyn, NY 11233, USA",Outdoor,40.6730157,-73.919862
World Academy for Total Community Health High School,School Garden,GrowNYC,"400 Granville Payne Ave, Brooklyn, NY 11207, USA",Outdoor,40.6669551,-73.89494119999999
Ernest S. Jenkyns,School Garden,GrowNYC,"982 Hegeman Ave, Brooklyn, NY 11208, USA",Outdoor,40.6661578,-73.8761335
Eagle Academy for Young Men II,School Garden,GrowNYC,"1137 Herkimer St, Brooklyn, NY 11233, USA",Outdoor,40.67828069999999,-73.9158662
Ethan Allen,School Garden,GrowNYC,"970 Vermont St, Brooklyn, NY 11207, USA",Outdoor,40.6552486,-73.8863315
Riverdale Avenue Community School,School Garden,GrowNYC,"76 Riverdale Ave, Brooklyn, NY 11212, USA",Outdoor,40.6600103,-73.9134779
Newport,School Garden,GrowNYC,"273 Newport St, Brooklyn, NY 11212, USA",Outdoor,40.6601967,-73.9050266
Ida Posner,School Garden,GrowNYC,"76 Lott Ave, Brooklyn, NY 11212, USA",Outdoor,40.6571964,-73.9110895
Rachel Jean Mitchell,School Garden,GrowNYC,"121 Saratoga Ave, Brooklyn, NY 11233, USA",Outdoor,40.6822299,-73.9167389
Eubie Blake School,School Garden,GrowNYC,"787 Lafayette Ave, Brooklyn, NY 11221, USA",Outdoor,40.6914425,-73.94070219999999
Brownsville Academy High School,School Garden,GrowNYC,"1150 E New York Ave, Brooklyn, NY 11212, USA",Outdoor,40.66629460000001,-73.9239496
Achievement First Bushwick Charter School,School Garden,GrowNYC,"1300 Greene Ave, Brooklyn, NY 11237, USA",Outdoor,40.697892,-73.919072
Francis White,School Garden,GrowNYC,"411 Thatford Ave, Brooklyn, NY 11212, USA",Outdoor,40.660182,-73.9068734
Cypress Hills,School Garden,GrowNYC,"265 Warwick St, Brooklyn, NY 11207, USA",Outdoor,40.6777898,-73.886699
Brooklyn High School for Law and Technology,School Garden,GrowNYC,"1396 Broadway, Brooklyn, NY 11221, USA",Outdoor,40.688414,-73.92082649999999
El Hajj Malik El Shabazz Elementary School,School Garden,GrowNYC,"500 Macon St, Brooklyn, NY 11233, USA",Outdoor,40.6830836,-73.92978219999999
Alejandrina B. De Gautier,School Garden,GrowNYC,"200 Woodbine St, Brooklyn, NY 11221, USA",Outdoor,40.6937526,-73.9149302
Danny Kaye,School Garden,GrowNYC,"700 Sutter Ave, Brooklyn, NY 11207, USA",Outdoor,40.6693828,-73.8927625
Mayda Cortiella,School Garden,GrowNYC,"95 Grove St, Brooklyn, NY 11221, USA",Outdoor,40.6933407,-73.9215154
Brooklyn Transition Center,School Garden,GrowNYC,"185 Ellery St, Brooklyn, NY 11206, USA",Outdoor,40.699193,-73.94521449999999
Brooklyn High School for Leadership and Community Service,School Garden,GrowNYC,"300 Willoughby Ave, Brooklyn, NY 11205, USA",Outdoor,40.6917732,-73.9584849
Academy for Environmental Leadership,School Garden,GrowNYC,"400 Irving Ave, Brooklyn, NY 11237, USA",Outdoor,40.6967365,-73.9120081
Mott Hall IV,School Garden,GrowNYC,"1137 Herkimer St, Brooklyn, NY 11233, USA",Outdoor,40.67828069999999,-73.9158662
Suydam,School Garden,GrowNYC,"100 Irving Ave, Brooklyn, NY 11237, USA",Outdoor,40.7039048,-73.9225744
Michael Friedsam,School Garden,GrowNYC,"2944 Pitkin Ave, Brooklyn, NY 11208, USA",Outdoor,40.6762696,-73.86308650000001
Dr. Betty Shabazz,School Garden,GrowNYC,"85 Watkins St, Brooklyn, NY 11212, USA",Outdoor,40.671229,-73.90759880000002
Boys and Girls High School,School Garden,GrowNYC,"1700 Fulton St, Brooklyn, NY 11213, USA",Outdoor,40.67892270000001,-73.9316585
Evergreen Middle School for Urban Exploration,School Garden,GrowNYC,"125 Covert St., Brooklyn, NY 11207, USA",Outdoor,40.6889301,-73.91035459999999
School Garden 323,School Garden,GrowNYC,"210 Chester St, Brooklyn, NY 11212, USA",Outdoor,40.66631690000001,-73.9110895
"Brooklyn Community High School of Communication, Arts and Media",School Garden,GrowNYC,"300 Willoughby Ave, Brooklyn, NY 11205, USA",Outdoor,40.6917732,-73.9584849
140@258,School Garden,GrowNYC,"141 Macon St, Brooklyn, NY 11216, USA",Outdoor,40.6820023,-73.9452586
William Floyd,School Garden,GrowNYC,"211 Throop Ave, Brooklyn, NY 11206, USA",Outdoor,40.6978871,-73.94349199999999
Aspirations Diploma Plus High School,School Garden,GrowNYC,"1495 Herkimer St, Brooklyn, NY 11233, USA",Outdoor,40.67756929999999,-73.9038324
Abraham Lincoln,School Garden,GrowNYC,"858 Jamaica Ave, Brooklyn, NY 11208, USA",Outdoor,40.6894254,-73.87314789999999
School Garden 065,School Garden,GrowNYC,"696 Jamaica Ave, Brooklyn, NY 11208, USA",Outdoor,40.6868771,-73.8783029
School Garden 376,School Garden,GrowNYC,"194 Harman St, Brooklyn, NY 11237, USA",Outdoor,40.6981146,-73.9203213
Bedford Stuyvesant Preparatory High School,School Garden,GrowNYC,"832 Marcy Ave, Brooklyn, NY 11216, USA",Outdoor,40.6844639,-73.9483771
Cypress Hills Collegiate Preparatory School,School Garden,GrowNYC,"999 Jamaica Ave, Brooklyn, NY 11208, USA",Outdoor,40.692915,-73.8690129
Abraham Lincoln High School,School Garden,GrowNYC,"2800 Ocean Pkwy, Brooklyn, NY 11235, USA",Outdoor,40.5828631,-73.9682183
Academy for College Preparation and Career Exploration: A College Board School,School Garden,GrowNYC,"911 Flatbush Ave, Brooklyn, NY 11226, USA",Outdoor,40.64930349999999,-73.95774899999999
Automotive High School,School Garden,GrowNYC,"50 Bedford Ave, Brooklyn, NY 11222, USA",Outdoor,40.7220162,-73.9538965
Brooklyn East Alternative Learning Center - John Jay,School Garden,GrowNYC,"237 7th Ave, Brooklyn, NY 11215, USA",Outdoor,40.6693177,-73.97864109999999
High School for Youth and Community Development at Erasmus,School Garden,GrowNYC,"911 Flatbush Ave, Brooklyn, NY 11226, USA",Outdoor,40.64930349999999,-73.95774899999999
Academy for Conservation and the Environment,School Garden,GrowNYC,"6565 Flatlands Ave, Brooklyn, NY 11236, USA",Outdoor,40.6336811,-73.91751959999999
The SEEALL Academy,School Garden,GrowNYC,"5601 16th Ave, Brooklyn, NY 11204, USA",Outdoor,40.6267129,-73.9895684
High School for Public Service: Heroes of Tomorrow,School Garden,GrowNYC,"600 Kingston Ave, Brooklyn, NY 11203, USA",Outdoor,40.6593652,-73.9431462
International Arts Business School,School Garden,GrowNYC,"600 Kingston Ave, Brooklyn, NY 11203, USA",Outdoor,40.6593652,-73.9431462
School for Democracy and Leadership,School Garden,GrowNYC,"600 Kingston Ave, Brooklyn, NY 11203, USA",Outdoor,40.6593652,-73.9431462
Joseph B Cavallaro,School Garden,GrowNYC,"8787 24th Ave, Brooklyn, NY 11214, USA",Outdoor,40.594251,-73.99392999999999
"School for Human Rights, The",School Garden,GrowNYC,"600 Kingston Ave, Brooklyn, NY 11203, USA",Outdoor,40.6593652,-73.9431462
Green School: An Academy for Environmental Careers,School Garden,GrowNYC,"223 Graham Ave, Brooklyn, NY 11206, USA",Outdoor,40.709729,-73.9443861
Seth Low,School Garden,GrowNYC,"99 Avenue P, Brooklyn, NY 11204, USA",Outdoor,40.6079832,-73.9851608
Marine Park,School Garden,GrowNYC,"1925 Stuart St, Brooklyn, NY 11229, USA",Outdoor,40.6066501,-73.938462
Community Roots Charter School,School Garden,GrowNYC,"51 St Edwards St, Brooklyn, NY 11205, USA",Outdoor,40.6950519,-73.977811
Herbert S. Eisenberg,School Garden,GrowNYC,"501 West Ave, Brooklyn, NY 11224, USA",Outdoor,40.58263640000001,-73.9720753
James Madison High School,School Garden,GrowNYC,"3787 Bedford Ave, Brooklyn, NY 11229, USA",Outdoor,40.6101298,-73.947968
Kurt Hahn Expeditionary Learning School,School Garden,GrowNYC,"5800 Tilden Ave, Brooklyn, NY 11203, USA",Outdoor,40.6478943,-73.9228473
Brooklyn Theatre Arts High School,School Garden,GrowNYC,"6565 Flatlands Ave, Brooklyn, NY 11236, USA",Outdoor,40.6336811,-73.91751959999999
Brooklyn Institute for Liberal Arts,School Garden,GrowNYC,"600 Kingston Ave, Brooklyn, NY 11203, USA",Outdoor,40.6593652,-73.9431462
Launch Expeditionary Learning Charter School ,School Garden,GrowNYC,"1580 Dean St, Brooklyn, NY 11213, USA",Outdoor,40.6758257,-73.9355229
Brooklyn Urban Garden Charter School,School Garden,GrowNYC,"500 19th St, Brooklyn, NY 11215, USA",Outdoor,40.6564072,-73.9827275
Walt Whitman,School Garden,GrowNYC,"72 Veronica Pl, Brooklyn, NY 11226, USA",Outdoor,40.6481939,-73.9534785
The Christa McAuliffe School,School Garden,GrowNYC,"1171 65th St, Brooklyn, NY 11219, USA",Outdoor,40.6278464,-74.0040229
School for Innovation,School Garden,GrowNYC,"500 19th St, Brooklyn, NY 11215, USA",Outdoor,40.65715,-73.98343899999999
William Mckinley,School Garden,GrowNYC,"7305 Fort Hamilton Pkwy, Brooklyn, NY 11228, USA",Outdoor,40.6264814,-74.0149914
Midwood High School,School Garden,GrowNYC,"2839 Bedford Ave, Brooklyn, NY 11210, USA",Outdoor,40.6331465,-73.9523633
William Alexander,School Garden,GrowNYC,"350 5th Ave, Brooklyn, NY 11215, USA",Outdoor,40.6722839,-73.98456399999999
Mott Hall Bridges Academy,School Garden,GrowNYC,"210 Chester St, Brooklyn, NY 11212, USA",Outdoor,40.66631690000001,-73.9110895
Peter Rouget,School Garden,GrowNYC,"544 7th Ave, Brooklyn, NY 11215, USA",Outdoor,40.6602554,-73.98805329999999
New Voices School of Academic & Creative Arts,School Garden,GrowNYC,"330 18th St, Brooklyn, NY 11215, USA",Outdoor,40.660959,-73.9889256
"Magnet School of Math, Science and Design Technology",School Garden,GrowNYC,"511 7th Ave, Brooklyn, NY 11215, USA",Outdoor,40.66092260000001,-73.9862168
Urban Assembly Institute of Math and Science for Young Women,School Garden,GrowNYC,"283 Adams St, Brooklyn, NY 11201, USA",Outdoor,40.6946321,-73.9884265
Silas B. Dutcher,School Garden,GrowNYC,"515 4th Ave, Brooklyn, NY 11215, USA",Outdoor,40.66748750000001,-73.9906623
Mckinley Park,School Garden,GrowNYC,"7805 7th Ave, Brooklyn, NY 11228, USA",Outdoor,40.6237903,-74.018579
Medgar Evers College Preparatory School,School Garden,GrowNYC,"1186 Carroll St, Brooklyn, NY 11225, USA",Outdoor,40.6669627,-73.9511825
William A. Butler,School Garden,GrowNYC,"610 Baltic St, Brooklyn, NY 11217, USA",Outdoor,40.6801221,-73.9806648
New Dawn Charter High School,School Garden,GrowNYC,"242 Hoyt St, Brooklyn, NY 11217, USA",Outdoor,40.6830346,-73.99031459999999
Alexine A. Fenty,School Garden,GrowNYC,"330 Rugby Rd, Brooklyn, NY 11226, USA",Outdoor,40.6413592,-73.9657847
The Bayview,School Garden,GrowNYC,"211 72nd St, Brooklyn, NY 11209, USA",Outdoor,40.634563,-74.0290168
The Windsor Terrace School,School Garden,GrowNYC,"1625 11th Ave, Brooklyn, NY 11215, USA",Outdoor,40.6571235,-73.976108
John W. Kimball Learning Center,School Garden,GrowNYC,"1301 8th Ave, Brooklyn, NY 11215, USA",Outdoor,40.6630214,-73.9811205
Leonard Dunkly,School Garden,GrowNYC,"157 Wilson St, Brooklyn, NY 11211, USA",Outdoor,40.7059027,-73.9620195
The Maurice Sendak Community School,School Garden,GrowNYC,"211 8th St, Brooklyn, NY 11215, USA",Outdoor,40.67099410000001,-73.9877319
Patrick F. Daly,School Garden,GrowNYC,"71 Sullivan St, Brooklyn, NY 11231, USA",Outdoor,40.6769361,-74.01193099999999
School of Science & Technology,School Garden,GrowNYC,"725 E 23rd St, Brooklyn, NY 11210, USA",Outdoor,40.6325873,-73.9542987
Homecrest,School Garden,GrowNYC,"1970 Homecrest Ave, Brooklyn, NY 11229, USA",Outdoor,40.6011615,-73.95999909999999
Caesar Rodney,School Garden,GrowNYC,"4211 14th Ave, Brooklyn, NY 11219, USA",Outdoor,40.6371629,-73.9858036
Ovington,School Garden,GrowNYC,"1225 Bay Ridge Ave, Brooklyn, NY 11219, USA",Outdoor,40.6247799,-74.0051318
Walter Kassenbrock,School Garden,GrowNYC,"8601 Ridge Blvd, Brooklyn, NY 11209, USA",Outdoor,40.6235788,-74.0335467
Arturo Toscanini,School Garden,GrowNYC,"350 Avenue X, Brooklyn, NY 11223, USA",Outdoor,40.5902191,-73.9698713
The Kings Highway Academy,School Garden,GrowNYC,"1599 E 22nd St, Brooklyn, NY 11210, USA",Outdoor,40.6125705,-73.9516447
Clinton Hill,School Garden,GrowNYC,"225 Adelphi St, Brooklyn, NY 11205, USA",Outdoor,40.6912212,-73.9712066
Doris L. Cohen,School Garden,GrowNYC,"1 Albemarle Rd, Brooklyn, NY 11218, USA",Outdoor,40.6455722,-73.9807532
Langston Hughes - PS 233,School Garden,GrowNYC,"9301 Avenue B, Brooklyn, NY 11236, USA",Outdoor,40.6514193,-73.9139793
Colonel David Marcus School,School Garden,GrowNYC,"1100 Newkirk Ave, Brooklyn, NY 11230, USA",Outdoor,40.6337679,-73.96624390000001
Janice Marie Knight School,School Garden,GrowNYC,"525 Lenox Rd, Brooklyn, NY 11203, USA",Outdoor,40.655042,-73.9406764
The Dual Language School of International Studies,School Garden,GrowNYC,"427 38th St, Brooklyn, NY 11232, USA",Outdoor,40.652853,-74.0046414
Emma L. Johnston,School Garden,GrowNYC,"976 President St, Brooklyn, NY 11225, USA",Outdoor,40.6688936,-73.9606878
Paerdegat,School Garden,GrowNYC,"1037 E 54th St, Brooklyn, NY 11234, USA",Outdoor,40.6312396,-73.9239955
Herman Schreiber,School Garden,GrowNYC,"1070 E 104th St, Brooklyn, NY 11236, USA",Outdoor,40.64415839999999,-73.8925788
The Caton,School Garden,GrowNYC,"18 Marlborough Rd, Brooklyn, NY 11226, USA",Outdoor,40.6497568,-73.96638159999999
The School For Future Leaders,School Garden,GrowNYC,"942 62nd St, Brooklyn, NY 11219, USA",Outdoor,40.6321361,-74.00756129999999
William Penn,School Garden,GrowNYC,"180 7th Ave, Brooklyn, NY 11215, USA",Outdoor,40.671733,-73.9785034
Dag Hammarskjold,School Garden,GrowNYC,"1801 Ave Y, Brooklyn, NY 11235, USA",Outdoor,40.5909705,-73.951458
Surfside,School Garden,GrowNYC,"2929 W 30th St, Brooklyn, NY 11224, USA",Outdoor,40.5746928,-73.9957664
Oliver H. Perry,School Garden,GrowNYC,"131 Norman Ave, Brooklyn, NY 11222, USA",Outdoor,40.72641429999999,-73.9498036
Philip Livingston,School Garden,GrowNYC,"314 Pacific St, Brooklyn, NY 11201, USA",Outdoor,40.68709200000001,-73.9883804
The Pacific,School Garden,GrowNYC,"450 Pacific St, Brooklyn, NY 11217, USA",Outdoor,40.6850381,-73.9829164
Henry Bristow,School Garden,GrowNYC,"417 6th Ave, Brooklyn, NY 11215, USA",Outdoor,40.6686933,-73.982957
Brooklyn Arts and Science Elementary School,School Garden,GrowNYC,"443 St Marks Ave, Brooklyn, NY 11238, USA",Outdoor,40.6769629,-73.9600909
Brooklyn Occupational Training Center,School Garden,GrowNYC,"64 Avenue X, Brooklyn, NY 11223, USA",Outdoor,40.589132,-73.9810287
Teunis G. Bergen (aka Sarah Smith Garnet),School Garden,GrowNYC,"80 Underhill Ave, Brooklyn, NY 11238, USA",Outdoor,40.6784354,-73.96583059999999
School Garden 109,School Garden,GrowNYC,"1001 E 45th St, Brooklyn, NY 11203, USA",Outdoor,40.636395,-73.9333185
The Fort Hamilton School,School Garden,GrowNYC,"9115 5th Ave, Brooklyn, NY 11209, USA",Outdoor,40.6181011,-74.0286826
The Magnet School for Math and Science Inquiry,School Garden,GrowNYC,"4715 18th Ave, Brooklyn, NY 11204, USA",Outdoor,40.6289228,-73.979789
Louis Marshall,School Garden,GrowNYC,"1070 E 83rd St, Brooklyn, NY 11236, USA",Outdoor,40.6337115,-73.90796619999999
The Conselyea School,School Garden,GrowNYC,"320 Manhattan Ave, Brooklyn, NY 11211, USA",Outdoor,40.7148161,-73.94582989999999
School Garden 295,School Garden,GrowNYC,"330 18th St, Brooklyn, NY 11215, USA",Outdoor,40.660959,-73.9889256
Edward C. Blum,School Garden,GrowNYC,"100 Clermont Ave, Brooklyn, NY 11205, USA",Outdoor,40.6948636,-73.9717309
Elijah Stroud,School Garden,GrowNYC,"750 Classon Ave, Brooklyn, NY 11238, USA",Outdoor,40.6745299,-73.9609174
School Garden 032,School Garden,GrowNYC,"317 Hoyt St, Brooklyn, NY 11231, USA",Outdoor,40.6802493,-73.99140489999999
The Children's School,School Garden,GrowNYC,"512 Carroll St, Brooklyn, NY 11215, USA",Outdoor,40.6766338,-73.9854365
Brooklyn Brownstone School,School Garden,GrowNYC,"272 MacDonough St, Brooklyn, NY 11233, USA",Outdoor,40.6816928,-73.93575249999999
New American Academy,School Garden,GrowNYC,"60 E 94th St, Brooklyn, NY 11212, USA",Outdoor,40.66390699999999,-73.92780739999999
Connie Lekas School,School Garden,GrowNYC,"2525 Haring St, Brooklyn, NY 11235, USA",Outdoor,40.5912252,-73.938828
Jose De Diego,School Garden,GrowNYC,"250 Berry St, Brooklyn, NY 11249, USA",Outdoor,40.7148137,-73.9633052
Edna Cohen School,School Garden,GrowNYC,"2840 W 12th St, Brooklyn, NY 11224, USA",Outdoor,40.5780803,-73.98034
"School of Math, Science, and Healthy Living",School Garden,GrowNYC,"6214 4th Ave, Brooklyn, NY 11220, USA",Outdoor,40.6395128,-74.0203312
Park Slope,School Garden,GrowNYC,"180 6th Ave, Brooklyn, NY 11217, USA",Outdoor,40.6766719,-73.977631
Amersfort,School Garden,GrowNYC,"3829 Avenue K, Brooklyn, NY 11210, USA",Outdoor,40.6260567,-73.9388469
Lewis H. Latimer,School Garden,GrowNYC,"170 Gates Ave, Brooklyn, NY 11238, USA",Outdoor,40.6842985,-73.9603205
Automotive High School,School Garden,GrowNYC,"50 Bedford Ave, Brooklyn, NY 11222, USA",Outdoor,40.7220162,-73.9538965
The Ethical Community Charter School (TECCS),School Garden,GrowNYC,"700 Park Ave, Brooklyn, NY 11206, USA",Outdoor,40.6975513,-73.9477893
Highland Park Community School,School Garden,GrowNYC,"528 Ridgewood Ave, Brooklyn, NY 11208, USA",Outdoor,40.6858609,-73.8693804
I033K,School Garden,GrowNYC,"70 Tompkins Ave, Brooklyn, NY 11206, USA",Outdoor,40.696622,-73.9472359
International High School at Prospect Heights,School Garden,GrowNYC,"883 Classon Ave, Brooklyn, NY 11225, USA",Outdoor,40.67004070000001,-73.96102859999999
New American Academy Charter School,School Garden,GrowNYC,"5800 Tilden Ave, Brooklyn, NY 11203, USA",Outdoor,40.6478943,-73.9228473
Eugenio Maria De Hostos,School Garden,GrowNYC,"101 Walton St, Brooklyn, NY 11206, USA",Outdoor,40.7031073,-73.94833539999999
School Garden 004,School Garden,GrowNYC,"530 Stanley Ave, Brooklyn, NY 11207, USA",Outdoor,40.6570583,-73.8887202
Essence School,School Garden,GrowNYC,"590 Sheffield Ave, Brooklyn, NY 11207, USA",Outdoor,40.6622521,-73.8947836
Mary White Ovington,School Garden,GrowNYC,"7002 4th Ave, Brooklyn, NY 11209, USA",Outdoor,40.6335649,-74.0242775
The Parkside,School Garden,GrowNYC,"70 Ocean Pkwy, Brooklyn, NY 11218, USA",Outdoor,40.6489096,-73.9762077
Abraham Stockton,School Garden,GrowNYC,"700 Park Ave, Brooklyn, NY 11206, USA",Outdoor,40.6975513,-73.9477893
Frances E. Carter,School Garden,GrowNYC,"242 Cooper St, Brooklyn, NY 11207, USA",Outdoor,40.6897153,-73.9050266
Samuel F. Dupont,School Garden,GrowNYC,"75 Meserole Ave, Brooklyn, NY 11222, USA",Outdoor,40.7268745,-73.95412449999999
Lefferts Park,School Garden,GrowNYC,"7115 15th Ave, Brooklyn, NY 11228, USA",Outdoor,40.6193778,-74.0005869
Brooklyn Landmark Elementary School,School Garden,GrowNYC,"251 MacDougal St, Brooklyn, NY 11233, USA",Outdoor,40.680537,-73.910772
Roy H. Mann,School Garden,GrowNYC,"1420 E 68 St, Brooklyn, NY 11234, USA",Outdoor,40.6208332,-73.9131104
School Garden 036,School Garden,GrowNYC,"2045 Linden Blvd, Brooklyn, NY 11207, USA",Outdoor,40.6604038,-73.88725029999999
Sunset Park Avenue Elementary School,School Garden,GrowNYC,"4222 4th Ave, Brooklyn, NY 11232, USA",Outdoor,40.6506652,-74.0085124
Professional Pathways High School,School Garden,GrowNYC,"3000 Avenue X, Brooklyn, NY 11235, USA",Outdoor,40.5934398,-73.93678249999999
John Ericsson Middle School 126,School Garden,GrowNYC,"424 Leonard St, Brooklyn, NY 11222, USA",Outdoor,40.7197652,-73.9478321
John M. Harrigan,School Garden,GrowNYC,"425 Henry St, Brooklyn, NY 11201, USA",Outdoor,40.6868025,-73.9978323
School for Career Development,School Garden,GrowNYC,"510 Clermont Ave, Brooklyn, NY 11238, USA",Outdoor,40.6826484,-73.9690981
John F. Hylan,School Garden,GrowNYC,"60 Cook St, Brooklyn, NY 11206, USA",Outdoor,40.7027512,-73.9412174
School Garden 146,School Garden,GrowNYC,"610 Henry St, Brooklyn, NY 11231, USA",Outdoor,40.6794537,-74.0021478
Clara Cardwell,School Garden,GrowNYC,"616 Quincy St, Brooklyn, NY 11221, USA",Outdoor,40.688365,-73.9353462
Homecrest,School Garden,GrowNYC,"1970 Homecrest Ave, Brooklyn, NY 11229, USA",Outdoor,40.6011615,-73.95999909999999
Bergen Beach,School Garden,GrowNYC,"7103 Avenue T, Brooklyn, NY 11234, USA",Outdoor,40.6219849,-73.90925229999999
Toussaint L'Ouverture,School Garden,GrowNYC,"791 Empire Blvd, Brooklyn, NY 11213, USA",Outdoor,40.6639642,-73.9360397
Bedford Stuyvesant New Beginnings Charter School,School Garden,GrowNYC,"82 Lewis Ave, Brooklyn, NY 11206, USA",Outdoor,40.6946692,-73.937699
The Weeksville School,School Garden,GrowNYC,"1580 Dean St, Brooklyn, NY 11213, USA",Outdoor,40.6758257,-73.9355229
Beacon School of Excellence,School Garden,GrowNYC,"825 4th Ave, Brooklyn, NY 11232, USA",Outdoor,40.657666,-74.000168
Edward R. Murrow High School,School Garden,GrowNYC,"1600 Avenue L, Brooklyn, NY 11230, USA",Outdoor,40.6195422,-73.9589429
Brooklyn Studio Secondary School,School Garden,GrowNYC,"8310 21st Ave, Brooklyn, NY 11214, USA",Outdoor,40.6048465,-73.9947464
Brooklyn STEP Academy at Canarsie Educational Campus,School Garden,GrowNYC,"1600 Rockaway Pkwy, Brooklyn, NY 11236, USA",Outdoor,40.640443,-73.8987798
Samuel C. Barnes,School Garden,GrowNYC,"195 Sanford St, Brooklyn, NY 11205, USA",Outdoor,40.6926096,-73.9527438
Kensington,School Garden,GrowNYC,"202 Avenue C, Brooklyn, NY 11218, USA",Outdoor,40.6402049,-73.9772637
Lyons Community School,School Garden,GrowNYC,"223 Graham Ave, Brooklyn, NY 11206, USA",Outdoor,40.709729,-73.9443861
David A. Boody,School Garden,GrowNYC,"228 Ave. S, Brooklyn, NY 11223, USA",Outdoor,40.6006781,-73.9770341
Secondary School for Journalism,School Garden,GrowNYC,"237 7th Ave, Brooklyn, NY 11215, USA",Outdoor,40.6693177,-73.97864109999999
Williamsburg Preparatory School,School Garden,GrowNYC,"257 N 6th St, Brooklyn, NY 11211, USA",Outdoor,40.7154923,-73.9550398
Digital Arts and Cinema Technology High School,School Garden,GrowNYC,"284 Baltic St, Brooklyn, NY 11201, USA",Outdoor,40.6849801,-73.9937004
Ronald Edmonds Learning Center,School Garden,GrowNYC,"300 Adelphi St, Brooklyn, NY 11205, USA",Outdoor,40.6885037,-73.9713999
Professional Pathways High School,School Garden,GrowNYC,"3000 Avenue X, Brooklyn, NY 11235, USA",Outdoor,40.5934398,-73.93678249999999
Brooklyn Prospect Charter School- Clinton Hill Middle School,School Garden,GrowNYC,"1100 Fulton St, Brooklyn, NY 11238, USA",Outdoor,40.681119,-73.956988
Robert Fulton,School Garden,GrowNYC,"37 Hicks St, Brooklyn, NY 11201, USA",Outdoor,40.7007185,-73.99297050000001
The Bedford Village,School Garden,GrowNYC,"50 Jefferson Ave, Brooklyn, NY 11216, USA",Outdoor,40.6823893,-73.9553153
Isaac Remsen,School Garden,GrowNYC,"325 Bushwick Ave, Brooklyn, NY 11206, USA",Outdoor,40.7050566,-73.9386916
World Academy for Total Community Health High School,School Garden,GrowNYC,"400 Granville Payne Ave, Brooklyn, NY 11207, USA",Outdoor,40.6669551,-73.89494119999999
Crispus Attucks,School Garden,GrowNYC,"180 Chauncey St, Brooklyn, NY 11233, USA",Outdoor,40.6805192,-73.92615409999999
The Math & Science Exploratory School,School Garden,GrowNYC,"345 Dean St, Brooklyn, NY 11217, USA",Outdoor,40.6837172,-73.98023959999999
Brooklyn School of Inquiry,School Garden,GrowNYC,"50 Avenue P, Brooklyn, NY 11204, USA",Outdoor,40.6070962,-73.9869672
Brooklyn Gardens Elementary School,School Garden,GrowNYC,"574 Dumont Ave, Brooklyn, NY 11207, USA",Outdoor,40.6655954,-73.8976315
Elizabeth G. Leary,School Garden,GrowNYC,"4011 Fillmore Ave, Brooklyn, NY 11234, USA",Outdoor,40.6137068,-73.9301496
PS 231@180,School Garden,GrowNYC,"5601 16th Ave, Brooklyn, NY 11204, USA",Outdoor,40.6267129,-73.9895684
Purvis J. Behan,School Garden,GrowNYC,"419 Waverly Ave, Brooklyn, NY 11238, USA",Outdoor,40.6854357,-73.9658766
Park Place Community Middle School,School Garden,GrowNYC,"62 Park Pl, Brooklyn, NY 11217, USA",Outdoor,40.6787211,-73.9763369
Daniel Hale Williams,School Garden,GrowNYC,"209 York St, Brooklyn, NY 11201, USA",Outdoor,40.701462,-73.98141609999999
The Urban Assembly Unison School,School Garden,GrowNYC,"170 Gates Ave, Brooklyn, NY 11238, USA",Outdoor,40.6842985,-73.9603205
Brooklyn Technical High School,School Garden,GrowNYC,"29 Fort Greene Pl, Brooklyn, NY 11217, USA",Outdoor,40.6889184,-73.97648699999999
The Monitor,School Garden,GrowNYC,"124 Monitor St, Brooklyn, NY 11222, USA",Outdoor,40.7237601,-73.9419954
The Benjamin Franklin Health & Science Academy,School Garden,GrowNYC,"850 Kent Ave, Brooklyn, NY 11205, USA",Outdoor,40.6953729,-73.95995309999999
George H. Lindsay,School Garden,GrowNYC,"108 Montrose Ave, Brooklyn, NY 11206, USA",Outdoor,40.7068735,-73.9454882
The Carroll,School Garden,GrowNYC,"330 Smith St, Brooklyn, NY 11231, USA",Outdoor,40.6803845,-73.9956286
Charles O. Dewey,School Garden,GrowNYC,"4004 4th Ave, Brooklyn, NY 11232, USA",Outdoor,40.6519928,-74.0072938
Sunset Park,School Garden,GrowNYC,"4305 7th Ave, Brooklyn, NY 11232, USA",Outdoor,40.6459698,-74.0018264
Brooklyn Frontiers High School,School Garden,GrowNYC,"112 Schermerhorn St, Brooklyn, NY 11201, USA",Outdoor,40.6899893,-73.9892204
Boerum Hill School for International Studies,School Garden,GrowNYC,"284 Baltic St, Brooklyn, NY 11201, USA",Outdoor,40.6849801,-73.9937004
South Brooklyn Community High School,School Garden,GrowNYC,"173 Conover St, Brooklyn, NY 11231, USA",Outdoor,40.6777746,-74.0141529
Dr. Ronald Mcnair,School Garden,GrowNYC,"820 Hancock St, Brooklyn, NY 11233, USA",Outdoor,40.6852239,-73.92229619999999
Jesse Owens,School Garden,GrowNYC,"1014 Lafayette Ave, Brooklyn, NY 11221, USA",Outdoor,40.6919757,-73.93148839999999
George W. Carver,School Garden,GrowNYC,"265 Ralph Ave, Brooklyn, NY 11233, USA",Outdoor,40.6801961,-73.9214329
Thaddeus Stevens,School Garden,GrowNYC,"990 Dekalb Ave, Brooklyn, NY 11221, USA",Outdoor,40.6930667,-73.9347451
The George E. Wibecan Preparatory Academy,School Garden,GrowNYC,"794 Monroe St, Brooklyn, NY 11221, USA",Outdoor,40.6881066,-73.92436289999999
Gotham Professional Arts Academy,School Garden,GrowNYC,"265 Ralph Ave, Brooklyn, NY 11233, USA",Outdoor,40.6801961,-73.9214329
Brighter Choice Community School,School Garden,GrowNYC,"280 Hart St, Brooklyn, NY 11206, USA",Outdoor,40.69376099999999,-73.9407122
Parkside Preparatory Academy,School Garden,GrowNYC,"655 Parkside Ave, Brooklyn, NY 11226, USA",Outdoor,40.6563887,-73.95146179999999
School Garden 006,School Garden,GrowNYC,"43 Snyder Ave, Brooklyn, NY 11226, USA",Outdoor,40.6491208,-73.9564633
Dr. Jacqueline Peek-Davis School,School Garden,GrowNYC,"430 Howard Ave, Brooklyn, NY 11233, USA",Outdoor,40.6730157,-73.919862
The Bilingual Center,School Garden,GrowNYC,"1100 E New York Ave, Brooklyn, NY 11212, USA",Outdoor,40.6654264,-73.92567100000001
Academy of Hospitality and Tourism,School Garden,GrowNYC,"911 Flatbush Ave, Brooklyn, NY 11226, USA",Outdoor,40.64930349999999,-73.95774899999999
Isaac Bildersee,School Garden,GrowNYC,"956 E 82nd St, Brooklyn, NY 11236, USA",Outdoor,40.6348776,-73.9107221
Daniel Mucatel School,School Garden,GrowNYC,"1500 E 92nd St, Brooklyn, NY 11236, USA",Outdoor,40.6349577,-73.897999
Sheldon A. Brookner,School Garden,GrowNYC,"684 Linden Blvd, Brooklyn, NY 11203, USA",Outdoor,40.6531986,-73.9329511
Elsa Ebeling,School Garden,GrowNYC,"4801 Avenue D, Brooklyn, NY 11203, USA",Outdoor,40.6424792,-73.9307007
The Science and Medicine Middle School ,School Garden,GrowNYC,"965 E 107th St, Brooklyn, NY 11236, USA",Outdoor,40.6474872,-73.8917979
Brooklyn Generation School,School Garden,GrowNYC,"6565 Flatlands Ave, Brooklyn, NY 11236, USA",Outdoor,40.6336811,-73.91751959999999
Middle School for Art and Philosophy,School Garden,GrowNYC,"1084 Lenox Rd, Brooklyn, NY 11212, USA",Outdoor,40.6579834,-73.92013759999999
Warwick,School Garden,GrowNYC,"400 Ashford St, Brooklyn, NY 11207, USA",Outdoor,40.6725442,-73.8851372
Abraham Lincoln,School Garden,GrowNYC,"528 Ridgewood Ave, Brooklyn, NY 11208, USA",Outdoor,40.6858609,-73.8693804
Margaret S. Douglas,School Garden,GrowNYC,"301 Vermont St, Brooklyn, NY 11207, USA",Outdoor,40.6716865,-73.89333669999999
Abe Stark,School Garden,GrowNYC,"1400 Granville Payne Ave, Brooklyn, NY 11239, USA",Outdoor,40.6467211,-73.88182979999999
East New York Family Academy,School Garden,GrowNYC,"145 Pennsylvania Ave, Brooklyn, NY 11207, USA",Outdoor,40.6738372,-73.8960768
Academy of Innovative Technology,School Garden,GrowNYC,"999 Jamaica Ave, Brooklyn, NY 11208, USA",Outdoor,40.692915,-73.8690129
Van Siclen Community Middle School,School Garden,GrowNYC,"800 Van Siclen Ave, Brooklyn, NY 11207, USA",Outdoor,40.6598585,-73.8855966
East New York Elementary School of Excellence,School Garden,GrowNYC,"605 Shepherd Ave, Brooklyn, NY 11208, USA",Outdoor,40.6694182,-73.8792113
Dr. Irving A Gladstone,School Garden,GrowNYC,"7601 19th Ave, Brooklyn, NY 11214, USA",Outdoor,40.6112005,-73.9944809
The Montauk,School Garden,GrowNYC,"4200 16th Ave, Brooklyn, NY 11219, USA",Outdoor,40.6349179,-73.9824083
The School of Journalism & Technology,School Garden,GrowNYC,"330 59th St, Brooklyn, NY 11220, USA",Outdoor,40.6419176,-74.0190873
Nelson A. Rockefeller,School Garden,GrowNYC,"5301 20th Ave, Brooklyn, NY 11204, USA",Outdoor,40.6228681,-73.97882480000001
Michael E. Berdy,School Garden,GrowNYC,"3314 Neptune Ave, Brooklyn, NY 11224, USA",Outdoor,40.5769299,-74.0005238
Frederick Wachtel,School Garden,GrowNYC,"1100 Elm Ave, Brooklyn, NY 11230, USA",Outdoor,40.6165667,-73.9631339
William E. Grady Career and Technical Education High School,School Garden,GrowNYC,"25 Brighton 4th Rd, Brooklyn, NY 11235, USA",Outdoor,40.5829591,-73.96344289999999
Joseph F Lamb,School Garden,GrowNYC,"2200 Gravesend Neck Rd, Brooklyn, NY 11229, USA",Outdoor,40.5972728,-73.9484272
Magnet School of STEM/Andries Hudde,School Garden,GrowNYC,"2500 Nostrand Ave., Brooklyn, NY 11210, USA",Outdoor,40.6239694,-73.9470955
Saint Clair Mckelway,School Garden,GrowNYC,"2163 Dean St, Brooklyn, NY 11233, USA",Outdoor,40.6752336,-73.915361
"The Gregory Jacko Jackson School of Sports, Art, and Technology",School Garden,GrowNYC,"213 Osborn St, Brooklyn, NY 11212, USA",Outdoor,40.6669333,-73.9075529
Teachers Preparatory High School,School Garden,GrowNYC,"226 Bristol St, Brooklyn, NY 11212, USA",Outdoor,40.6657071,-73.91196219999999
The Willoughby,School Garden,GrowNYC,"1390 Willoughby Ave, Brooklyn, NY 11237, USA",Outdoor,40.7068713,-73.9200201
Philippa Schuyler,School Garden,GrowNYC,"1300 Greene Ave, Brooklyn, NY 11237, USA",Outdoor,40.697892,-73.919072
Bushwick School for Social Justice,School Garden,GrowNYC,"400 Irving Ave, Brooklyn, NY 11237, USA",Outdoor,40.6967365,-73.9120081
Academy of Urban Planning,School Garden,GrowNYC,"400 Irving Ave, Brooklyn, NY 11237, USA",Outdoor,40.6967365,-73.9120081
Bushwick Leaders High School for Academic Excellence,School Garden,GrowNYC,"797 Bushwick Ave, Brooklyn, NY 11221, USA",Outdoor,40.6952598,-73.9273941
P53K,School Garden,GrowNYC,"544 7th Ave, Brooklyn, NY 11215, USA",Outdoor,40.6602554,-73.98805329999999
School Garden 077,School Garden,GrowNYC,"62 Park Pl, Brooklyn, NY 11217, USA",Outdoor,40.6787211,-73.9763369
School Garden 141,School Garden,GrowNYC,"655 Parkside Ave, Brooklyn, NY 11226, USA",Outdoor,40.6563887,-73.95146179999999
Cory L. Cox School @ PS133,School Garden,GrowNYC,"610 Baltic St, Brooklyn, NY 11217, USA",Outdoor,40.6801221,-73.9806648
The Jim Thorpe School ,School Garden,GrowNYC,"3000 W 1st St, Brooklyn, NY 11224, USA",Outdoor,40.5776747,-73.9698657
Lillian L. Rashkis,School Garden,GrowNYC,"355 37th St, Brooklyn, NY 11232, USA",Outdoor,40.6541651,-74.00536129999999
Achievement First University Prep,School Garden,GrowNYC,"35 Starr St, Brooklyn, NY 11221, USA",Outdoor,40.7012793,-73.9276237
Brownsville Ascend Charter School,School Garden,GrowNYC,"1501 Pitkin Ave, Brooklyn, NY 11212, USA",Outdoor,40.6703519,-73.9183796
Hebrew Language Academy Charter School,School Garden,GrowNYC,"2186 Mill Ave, Brooklyn, NY 11234, USA",Outdoor,40.61220410000001,-73.91416679999999
Imagine Me Leadership Charter School,School Garden,GrowNYC,"818 Schenck Ave, Brooklyn, NY 11207, USA",Outdoor,40.6601118,-73.8834789
Compass Charter School,School Garden,GrowNYC,"300 Adelphi St, Brooklyn, NY 11205, USA",Outdoor,40.6885037,-73.9713999
The Cultural Arts Academy at Spring Creek Charter School,School Garden,GrowNYC,"1400 Linden Blvd, Brooklyn, NY 11212, USA",Outdoor,40.6541752,-73.9083337
PS36K @ Flatbush Town Hall,School Garden,GrowNYC,"35 Snyder Ave, Brooklyn, NY 11226, USA",Outdoor,40.6487955,-73.9568254
School Garden 664,School Garden,GrowNYC,"140 58th St, Brooklyn, NY 11220, USA",Outdoor,40.6468985,-74.0236777
PS 368 @PS293K - District 75 Star Academy,School Garden,GrowNYC,"284 Baltic St, Brooklyn, NY 11201, USA",Outdoor,40.6849801,-73.9937004
Bushwick United Head Start,School Garden,GrowNYC,"77 Wilson Ave, Brooklyn, NY 11237, USA",Outdoor,40.7020613,-73.9277415
Ace Integration Head Start,School Garden,GrowNYC,"1419 Broadway, Brooklyn, NY 11221, USA",Outdoor,40.6886669,-73.9201437
Inner Force Tots,School Garden,GrowNYC,"1181 E New York Ave, Brooklyn, NY 11212, USA",Outdoor,40.667156,-73.923209
St. Mark's Head Start & UPK,School Garden,GrowNYC,"2017 Beverley Rd, Brooklyn, NY 11226, USA",Outdoor,40.6452274,-73.9592644
@PS224,School Garden,GrowNYC,"755 Wortman Ave, Brooklyn, NY 11208, USA",Outdoor,40.6647373,-73.8658955
The Genovesi Environmental Study Center,School Garden,GrowNYC,"7151 Avenue T, Brooklyn, NY 11234, USA",Outdoor,40.6221669,-73.9084944
@ MS 002,School Garden,GrowNYC,"655 Parkside Ave, Brooklyn, NY 11226, USA",Outdoor,40.6563887,-73.95146179999999
@ Brooklyn Children Ctr.,School Garden,GrowNYC,"1819 Bergen St, Brooklyn, NY 11233, USA",Outdoor,40.6749034,-73.9213473
53@PS437,School Garden,GrowNYC,"713 Caton Ave, Brooklyn, NY 11218, USA",Outdoor,40.6478367,-73.9732286
P53K@ Spring Creek,School Garden,GrowNYC,"1065 Elton St, Brooklyn, NY 11239, USA",Outdoor,40.6572453,-73.8740662
Andrew Jackson,School Garden,GrowNYC,"100 Noll St, Brooklyn, NY 11206, USA",Outdoor,40.701515,-73.9322622
High School for Youth and Community Development at Erasmus,School Garden,GrowNYC,"911 Flatbush Ave, Brooklyn, NY 11226, USA",Outdoor,40.64930349999999,-73.95774899999999
MS 890,School Garden,GrowNYC,"21 Hinckley Pl, Brooklyn, NY 11218, USA",Outdoor,40.6445569,-73.97133769999999
School Garden 889,School Garden,GrowNYC,"21 Hinckley Pl, Brooklyn, NY 11218, USA",Outdoor,40.6445569,-73.97133769999999
P141@MS35,School Garden,GrowNYC,"272 MacDonough St, Brooklyn, NY 11233, USA",Outdoor,40.6816928,-73.93575249999999
Bedford Stuyvesant Complex/Referral Center,School Garden,GrowNYC,"832 Marcy Ave, Brooklyn, NY 11216, USA",Outdoor,40.6844639,-73.9483771
@main,School Garden,GrowNYC,"110 Chester St, Brooklyn, NY 11212, USA",Outdoor,40.6680506,-73.9115947
@181,School Garden,GrowNYC,"1023 New York Ave, Brooklyn, NY 11203, USA",Outdoor,40.6480961,-73.94599339999999
@323,School Garden,GrowNYC,"210 Chester St, Brooklyn, NY 11212, USA",Outdoor,40.66631690000001,-73.9110895
@532,School Garden,GrowNYC,"1025 Eastern Pkwy, Brooklyn, NY 11213, USA",Outdoor,40.6694409,-73.93437480000001
School Garden 915,School Garden,GrowNYC,"105 Johnson St, Brooklyn, NY 11201, USA",Outdoor,40.6956305,-73.9856714
Bushwick United Day Care Center,School Garden,GrowNYC,"243 S 2nd St, Brooklyn, NY 11211, USA",Outdoor,40.711913,-73.957756
Little Sun People,School Garden,GrowNYC,"1360 Fulton St, Brooklyn, NY 11216, USA",Outdoor,40.6801207,-73.94649199999999
Tompkins Childrens Center,School Garden,GrowNYC,"730 Park Ave, Brooklyn, NY 11206, USA",Outdoor,40.6975115,-73.94617939999999
@PS236,School Garden,GrowNYC,"6302 Avenue U, Brooklyn, NY 11234, USA",Outdoor,40.6159136,-73.9125133
@ Main Site ,School Garden,GrowNYC,"383 State St, Brooklyn, NY 11217, USA",Outdoor,40.6873864,-73.9835617
@289,School Garden,GrowNYC,"900 St Marks Ave, Brooklyn, NY 11213, USA",Outdoor,40.6741463,-73.9424573
@ P.S 007Q- D75 Satellite Site,School Garden,GrowNYC,"80-55 Cornish Ave, Queens, NY 11373, USA",Outdoor,40.7397494,-73.8825748
@Townsend Harris High School,School Garden,GrowNYC,"149-11 Melbourne Ave, Queens, NY 11367, USA",Outdoor,40.7351803,-73.8212289
P233Q@686 ,School Garden,GrowNYC,"91-30 Metropolitan Ave, Forest Hills, NY 11375, USA",Outdoor,40.7088482,-73.8558219
School Garden 230,School Garden,GrowNYC,"73-10 34th Ave, Flushing, NY 11372, USA",Outdoor,40.7526398,-73.8928407
Queens Collegiate: A College Board School,School Garden,GrowNYC,"167-01 Gothic Dr, Jamaica, NY 11432, USA",Outdoor,40.71443319999999,-73.79825240000001
P993Q @ MS72,School Garden,GrowNYC,"133-25 Guy R Brewer Blvd, Jamaica, NY 11434, USA",Outdoor,40.6749335,-73.7757841
The Queens School for Leadership and Excellence,School Garden,GrowNYC,"88-08 164th St, Jamaica, NY 11432, USA",Outdoor,40.7084373,-73.7984476
P233Q@875,School Garden,GrowNYC,"114-43 142nd St, Jamaica, NY 11436, USA",Outdoor,40.6837829,-73.8012395
Main Site- Marathon School,School Garden,GrowNYC,"61-25 Marathon Pkwy, Little Neck, NY 11362, USA",Outdoor,40.756146,-73.7287858
Growing Up Green Charter School,School Garden,GrowNYC,"39-37 28th St, Long Island City, NY 11101, USA",Outdoor,40.7527759,-73.9361045
PS004Q@ Skillman Avenue,School Garden,GrowNYC,"24-30 Skillman Ave, Long Island City, NY 11101, USA",Outdoor,40.742201,-73.94519319999999
Growing Up Green Middle School ,School Garden,GrowNYC,"36-49 11th St, Long Island City, NY 11101, USA",Outdoor,40.7598607,-73.9404461
School Garden 208,School Garden,GrowNYC,"21 W 111th St, New York, NY 10026, USA",Outdoor,40.7983413,-73.9504528
John V. Lindsay Wildcat Academy Charter School,School Garden,GrowNYC,"17 Battery Pl, New York, NY 10004, USA",Outdoor,40.7051588,-74.0159855
Central Park East I,School Garden,GrowNYC,"1573 Madison Ave, New York, NY 10029, USA",Outdoor,40.7936872,-73.9486109
Henry H Garnet,School Garden,GrowNYC,"175 W 134th St, New York, NY 10030, USA",Outdoor,40.8140101,-73.9421359
Hugo Newman,School Garden,GrowNYC,"370 W 120th St, New York, NY 10027, USA",Outdoor,40.8076245,-73.95604999999999
Thurgood Marshall Academy Lower School,School Garden,GrowNYC,"276 W 151st St, New York, NY 10039, USA",Outdoor,40.8258675,-73.9378107
Manhattan Occupational Training Center,School Garden,GrowNYC,"250 W Houston St, New York, NY 10014, USA",Outdoor,40.7291044,-74.00628549999999
Hernandez/Hughes,School Garden,GrowNYC,"144 E 128th St #176, New York, NY 10035, USA",Outdoor,40.8056543,-73.93546020000001
Harlem Renaissance High School,School Garden,GrowNYC,"22 E 128th St, New York, NY 10035, USA",Outdoor,40.80780439999999,-73.9399775
Frederick Douglass Academy,School Garden,GrowNYC,"2581 Adam Clayton Powell Jr Blvd, New York, NY 10001, USA",Outdoor,40.8243981,-73.936545
Horan School,School Garden,GrowNYC,"55 E 120th St, New York, NY 10035, USA",Outdoor,40.80250880000001,-73.94237050000001
Future Leaders Institute Charter School,School Garden,GrowNYC,"134 W 122nd St, New York, NY 10027, USA",Outdoor,40.8063157,-73.9487487
Ann M. Short,School Garden,GrowNYC,"421 E 106th St, New York, NY 10029, USA",Outdoor,40.78919,-73.9378835
"Harlem Renaissance
",School Garden,GrowNYC,"2005 Madison Ave, New York, NY 10035, USA",Outdoor,40.80706259999999,-73.9388293
Central Park East II,School Garden,GrowNYC,"19 E 103rd St, New York, NY 10029, USA",Outdoor,40.7923184,-73.951458
River East Elementary,School Garden,GrowNYC,"508 E 120th St, New York, NY 10035, USA",Outdoor,40.7969061,-73.9299784
Columbia Secondary School,School Garden,GrowNYC,"425 W 123rd St, New York, NY 10027, USA",Outdoor,40.810687,-73.95606099999999
Millennium High School,School Garden,GrowNYC,"75 Broad St, New York, NY 10004, USA",Outdoor,40.70473,-74.0114523
Jacqueline Kennedy Onassis High School,School Garden,GrowNYC,"120 W 46th St, New York, NY 10036, USA",Outdoor,40.7576045,-73.9835118
Manhattan School for Career Development Preparatory (MSCD),School Garden,GrowNYC,"113 E 4th St, New York, NY 10003, USA",Outdoor,40.72570959999999,-73.9878238
The Urban Assembly School for Green Careers,School Garden,GrowNYC,"145 W 84th St, New York, NY 10024, USA",Outdoor,40.7860105,-73.9740956
Fiorello H. LaGuardia High School of Music & Art and Performing Arts,School Garden,GrowNYC,"100 Amsterdam Ave, New York, NY 10023, USA",Outdoor,40.7741328,-73.9858036
The Computer School,School Garden,GrowNYC,"100 W 77th St, New York, NY 10024, USA",Outdoor,40.7810978,-73.97809649999999
Murray Hill Academy,School Garden,GrowNYC,"111 E 33rd St, New York, NY 10016, USA",Outdoor,40.7463061,-73.9811402
Murry Bergtraum High School for Business Careers,School Garden,GrowNYC,"411 Pearl St, New York, NY 10038, USA",Outdoor,40.7110316,-74.0013216
Manhattan Academy of Technology (aka Jacob Riis),School Garden,GrowNYC,"80 Catherine St, New York, NY 10038, USA",Outdoor,40.7105672,-73.9970098
Roberto Clemente,School Garden,GrowNYC,"333 E 4th St, New York, NY 10009, USA",Outdoor,40.7219088,-73.9787369
Chelsea Prep,School Garden,GrowNYC,"281 9th Ave, New York, NY 10001, USA",Outdoor,40.7490291,-74.00031899999999
Manhattan School for Children,School Garden,GrowNYC,"154 W 93rd St, New York, NY 10025, USA",Outdoor,40.7912562,-73.9711111
High School M560 - City As School,School Garden,GrowNYC,"16 Clarkson St, New York, NY 10014, USA",Outdoor,40.7291091,-74.0060997
East Side Community School,School Garden,GrowNYC,"420 E 12th St, New York, NY 10009, USA",Outdoor,40.7290533,-73.98250279999999
P.O. Michael J. Buczek,School Garden,GrowNYC,"4360 Broadway, New York, NY 10033, USA",Outdoor,40.8533574,-73.9335421
Liberty High School Academy for Newcomers,School Garden,GrowNYC,"250 W 18th St, New York, NY 10011, USA",Outdoor,40.7418278,-74.00024619999999
Roosevelt Island,School Garden,GrowNYC,"645 Main St, New York, NY 10044, USA",Outdoor,40.764146,-73.9483885
Edward A. Reynolds West Side High School,School Garden,GrowNYC,"140 W 102nd St, New York, NY 10025, USA",Outdoor,40.7971349,-73.9668867
Robert E. Simon,School Garden,GrowNYC,"234 W 109th St, New York, NY 10025, USA",Outdoor,40.8026474,-73.9660602
Franklin D. Roosevelt,School Garden,GrowNYC,"730 E 12th St, New York, NY 10009, USA",Outdoor,40.7261446,-73.9750657
Girls Preparatory Charter School of New York,School Garden,GrowNYC,"442 E Houston St, New York, NY 10002, USA",Outdoor,40.7198989,-73.9773555
Lillie D. Blake,School Garden,GrowNYC,"45 E 81st St, New York, NY 10028, USA",Outdoor,40.7776435,-73.96055009999999
High School for Law and Public Service,School Garden,GrowNYC,"549 Audubon Ave, New York, NY 10040, USA",Outdoor,40.8564966,-73.92606219999999
Harbor Heights,School Garden,GrowNYC,"306 Fort Washington Ave, New York, NY 10033, USA",Outdoor,40.8455807,-73.9394149
School Garden 131,School Garden,GrowNYC,"100 Hester St, New York, NY 10002, USA",Outdoor,40.7161943,-73.9933849
Middle School 322,School Garden,GrowNYC,"4600 Broadway, New York, NY 10040, USA",Outdoor,40.8608344,-73.9300119
New York French American Charter School,School Garden,GrowNYC,"311 W 120th St, New York, NY 10027, USA",Outdoor,40.80754,-73.9542362
Alfred E. Smith,School Garden,GrowNYC,"8 Henry St, New York, NY 10038, USA",Outdoor,40.7125894,-73.9976565
Dos Puentes Elementary School,School Garden,GrowNYC,"185 Wadsworth Ave, New York, NY 10033, USA",Outdoor,40.8505665,-73.9339155
William T. Harris,School Garden,GrowNYC,"320 W 21st St, New York, NY 10011, USA",Outdoor,40.744296,-74.0006788
Alfred E. Smith,School Garden,GrowNYC,"163 W 97th St, New York, NY 10025, USA",Outdoor,40.7948887,-73.9684479
The Richard Rodgers School of The Arts and Technology,School Garden,GrowNYC,"132 W 89th St, New York, NY 10024, USA",Outdoor,40.788883,-73.9724552
Professor Juan Bosch Public School,School Garden,GrowNYC,"12 Ellwood St, New York, NY 10040, USA",Outdoor,40.859308,-73.9282207
School Garden 189,School Garden,GrowNYC,"2580 Amsterdam Ave, New York, NY 10040, USA",Outdoor,40.8531056,-73.9279452
John B. Russwurm,School Garden,GrowNYC,"2230 5th Ave, New York, NY 10037, USA",Outdoor,40.8133503,-73.9377732
Charrette School,School Garden,GrowNYC,"490 Hudson St, New York, NY 10014, USA",Outdoor,40.7326766,-74.0059122
The Peck Slip School,School Garden,GrowNYC,"52 Chambers St, New York, NY 10007, USA",Outdoor,40.7134071,-74.00552569999999
The 47 American Sign Language & English Lower School,School Garden,GrowNYC,"225 E 23rd St, New York, NY 10010, USA",Outdoor,40.7382717,-73.9814394
Hamilton Heights School,School Garden,GrowNYC,"1750 Amsterdam Ave, New York, NY 10031, USA",Outdoor,40.8266666,-73.94764649999999
Paula Hedbavny School,School Garden,GrowNYC,"421 W 219th St, New York, NY 10034, USA",Outdoor,40.8714909,-73.9122076
Pedro Albizu Campos,School Garden,GrowNYC,"499 W 133rd St, New York, NY 10027, USA",Outdoor,40.81775520000001,-73.9524683
School of the Future High School,School Garden,GrowNYC,"127 E 22nd St, New York, NY 10010, USA",Outdoor,40.7391109,-73.9853486
Stuyvesant High School,School Garden,GrowNYC,"345 Chambers St, New York, NY 10282, USA",Outdoor,40.7181492,-74.0137623
Mickey Mantle School,School Garden,GrowNYC,"466 West End Ave, New York, NY 10024, USA",Outdoor,40.7863232,-73.9792839
Teachers College Community School,School Garden,GrowNYC,"168 Morningside Ave, New York, NY 10027, USA",Outdoor,40.812531,-73.95354739999999
Institute for Collaborative Education,School Garden,GrowNYC,"345 E 15th St, New York, NY 10003, USA",Outdoor,40.732689,-73.98258969999999
Amalia Castro,School Garden,GrowNYC,"100 Attorney St, New York, NY 10002, USA",Outdoor,40.7182566,-73.98401299999999
Harriet Tubman,School Garden,GrowNYC,"250 W 127th St, New York, NY 10027, USA",Outdoor,40.8106338,-73.9487487
NYC iSchool,School Garden,GrowNYC,"131 6th Ave, New York, NY 10013, USA",Outdoor,40.7246823,-74.0050859
Lower East Side Preparatory High School,School Garden,GrowNYC,"145 Stanton St, New York, NY 10002, USA",Outdoor,40.720088,-73.9860332
Sisulu-Walker Charter School of Harlem,School Garden,GrowNYC,"125 W 115th St, New York, NY 10026, USA",Outdoor,40.802164,-73.9512743
The Children's Workshop School,School Garden,GrowNYC,"610 E 12th St, New York, NY 10009, USA",Outdoor,40.7277257,-73.9783818
Samuel Stern,School Garden,GrowNYC,"160 E 120th St, New York, NY 10035, USA",Outdoor,40.8007729,-73.9393346
Midtown West,School Garden,GrowNYC,"328 W 48th St, New York, NY 10036, USA",Outdoor,40.761226,-73.9886092
High School of Arts and Technology,School Garden,GrowNYC,"122 Amsterdam Ave, New York, NY 10023, USA",Outdoor,40.7748463,-73.9856659
Patrick Henry,School Garden,GrowNYC,"19 E 103rd St, New York, NY 10029, USA",Outdoor,40.7923184,-73.951458
Manhattan Middle School for Scientific Inquiry,School Garden,GrowNYC,"401 W 164th St, New York, NY 10032, USA",Outdoor,40.8369119,-73.9374121
Park Terrace,School Garden,GrowNYC,"4124 9th Ave, New York, NY 10034, USA",Outdoor,40.8716912,-73.9117038
Vito Marcantonio,School Garden,GrowNYC,"433 E 100th St, New York, NY 10029, USA",Outdoor,40.78518,-73.9410682
Muscota,School Garden,GrowNYC,"4862 Broadway, New York, NY 10034, USA",Outdoor,40.8666002,-73.9238786
Twenty-first Century Academy for Community Leadership,School Garden,GrowNYC,"501-503 W 152nd St, New York, NY 10031, USA",Outdoor,40.8299318,-73.9445704
Tompkins Square Middle School,School Garden,GrowNYC,"600 E 6th St, New York, NY 10009, USA",Outdoor,40.7238456,-73.9817633
Inwood,School Garden,GrowNYC,"650 Academy St, New York, NY 10034, USA",Outdoor,40.8659143,-73.925157
The STAR Academy,School Garden,GrowNYC,"121 E 3rd St, New York, NY 10009, USA",Outdoor,40.7244069,-73.9862627
Neighborhood School,School Garden,GrowNYC,"121 E 3rd St, New York, NY 10009, USA",Outdoor,40.7244069,-73.9862627
Adam Clayton Powell,School Garden,GrowNYC,"1750 Amsterdam Ave, New York, NY 10031, USA",Outdoor,40.8266666,-73.94764649999999
Robert F. Wagner,School Garden,GrowNYC,"220 E 76th St, New York, NY 10021, USA",Outdoor,40.7718269,-73.95794029999999
Jessie Isador Straus,School Garden,GrowNYC,"270 W 70th St, New York, NY 10023, USA",Outdoor,40.7776219,-73.98456399999999
Florence Nightingale,School Garden,GrowNYC,"285 Delancey St, New York, NY 10002, USA",Outdoor,40.7152496,-73.97999380000002
Bread & Roses Integrated Arts High School,School Garden,GrowNYC,"6 Edgecombe Ave, New York, NY 10030, USA",Outdoor,40.8174596,-73.94714139999999
Battery Park City School,School Garden,GrowNYC,"55 Battery Pl, New York, NY 10280, USA",Outdoor,40.705888,-74.01785699999999
School Garden 150,School Garden,GrowNYC,"334 Greenwich St, New York, NY 10013, USA",Outdoor,40.7180827,-74.010942
Jacques Cartier,School Garden,GrowNYC,"315 E 113th St, New York, NY 10029, USA",Outdoor,40.79492219999999,-73.9383242
Shuang Wen,School Garden,GrowNYC,"327 Cherry St, New York, NY 10002, USA",Outdoor,40.7114447,-73.98548939999999
Urban Assembly New York Harbor School,School Garden,GrowNYC,"10 South St Slip 7, New York, NY 10004, USA",Outdoor,40.7010846,-74.012248
Lillian Weber School of the Arts,School Garden,GrowNYC,"32 W 92nd St, New York, NY 10025, USA",Outdoor,40.7894371,-73.9680806
Robert Simon,School Garden,GrowNYC,"600 E 6th St, New York, NY 10009, USA",Outdoor,40.7238456,-73.9817633
The East Village Community  School (EVCS),School Garden,GrowNYC,"610 E 12th St, New York, NY 10009, USA",Outdoor,40.7277257,-73.9783818
School for Global Leaders,School Garden,GrowNYC,"145 Stanton St, New York, NY 10002, USA",Outdoor,40.720088,-73.9860332
Forsyth Satellite Academy,School Garden,GrowNYC,"198 Forsyth St, New York, NY 10002, USA",Outdoor,40.7224446,-73.99039479999999
"New Explorations into Science, Technology and Math High School",School Garden,GrowNYC,"111 Columbia St, New York, NY 10002, USA",Outdoor,40.7197829,-73.9792454
Meyer London,School Garden,GrowNYC,"122 Henry St, New York, NY 10002, USA",Outdoor,40.713057,-73.9916866
Benjamin Altman,School Garden,GrowNYC,"71 Hester St, New York, NY 10002, USA",Outdoor,40.7161122,-73.9909457
Elias Howe,School Garden,GrowNYC,"525 W 44th St, New York, NY 10036, USA",Outdoor,40.7614299,-73.99542509999999
Isador E. Ida Straus,School Garden,GrowNYC,"1700 3rd Ave, New York, NY 10128, USA",Outdoor,40.785013,-73.94998850000002
Ella Baker School,School Garden,GrowNYC,"317 E 67th St, New York, NY 10065, USA",Outdoor,40.7653683,-73.9596962
High School for Environmental Studies,School Garden,GrowNYC,"444 W 56th St, New York, NY 10019, USA",Outdoor,40.7677451,-73.98809920000001
Quest to Learn,School Garden,GrowNYC,"351 W 18th St, New York, NY 10011, USA",Outdoor,40.7432281,-74.002426
Hudson High School of Learning Technologies,School Garden,GrowNYC,"351 W 18th St, New York, NY 10011, USA",Outdoor,40.7432281,-74.002426
New Design High School,School Garden,GrowNYC,"350 Grand St, New York, NY 10002, USA",Outdoor,40.7173452,-73.9892929
Independence High School,School Garden,GrowNYC,"850 10th Ave, New York, NY 10019, USA",Outdoor,40.7678733,-73.988931
Life Sciences Secondary School,School Garden,GrowNYC,"320 E 96th St, New York, NY 10128, USA",Outdoor,40.7832167,-73.9460393
Emily Dickinson,School Garden,GrowNYC,"735 West End Ave, New York, NY 10025, USA",Outdoor,40.7952089,-73.9739578
William Sherman,School Garden,GrowNYC,"160 W 78th St, New York, NY 10024, USA",Outdoor,40.7818845,-73.9779065
The Bloomingdale School,School Garden,GrowNYC,"150 W 105th St, New York, NY 10025, USA",Outdoor,40.7990784,-73.965096
The Locke School of Arts and Engineering (prev The Early Childhood Discovery and Design Magnet School),School Garden,GrowNYC,"20 W 112th St, New York, NY 10026, USA",Outdoor,40.7984949,-73.9498493
Riverside School for Makers and Artists (PS 191),School Garden,GrowNYC,"300 W 61st St, New York, NY 10023, USA",Outdoor,40.7729791,-73.9900749
Wadleigh Secondary School for the Performing & Visual Arts,School Garden,GrowNYC,"215 W 114th St, New York, NY 10026, USA",Outdoor,40.8025744,-73.95414029999999
PS 452,School Garden,GrowNYC,"210 W 61st St, New York, NY 10023, USA",Outdoor,40.7719115,-73.9876838
Manhattan Hunter Science High School,School Garden,GrowNYC,"122 Amsterdam Ave, New York, NY 10023, USA",Outdoor,40.7748463,-73.9856659
Roberto Clemente,School Garden,GrowNYC,"232 E 103rd St, New York, NY 10029, USA",Outdoor,40.7886777,-73.9448453
School of Authors,School Garden,GrowNYC,"1615 Madison Ave, New York, NY 10029, USA",Outdoor,40.7951252,-73.9478762
Jose Celso Barbosa,School Garden,GrowNYC,"508 E 120th St, New York, NY 10035, USA",Outdoor,40.7969061,-73.9299784
Central Park East High School,School Garden,GrowNYC,"1573 Madison Ave, New York, NY 10029, USA",Outdoor,40.7936872,-73.9486109
Margaret Douglas,School Garden,GrowNYC,"123 Morningside Dr, New York, NY 10027, USA",Outdoor,40.8106604,-73.9573358
Fred R Moore,School Garden,GrowNYC,"2121 5th Ave, New York, NY 10037, USA",Outdoor,40.8098605,-73.9392692
Countee Cullen,School Garden,GrowNYC,"244 W 144th St, New York, NY 10030, USA",Outdoor,40.8212338,-73.9406204
Urban Assembly Academy for Future Leaders,School Garden,GrowNYC,"509 W 129th St, New York, NY 10027, USA",Outdoor,40.8156813,-73.95577449999999
Wright Brothers,School Garden,GrowNYC,"475 W 155th St, New York, NY 10032, USA",Outdoor,40.8319203,-73.94231959999999
Shorac Kappock,School Garden,GrowNYC,"512 W 212th St, New York, NY 10034, USA",Outdoor,40.8678429,-73.9176573
Hudson Cliffs,School Garden,GrowNYC,"349 Cabrini Blvd, New York, NY 10040, USA",Outdoor,40.8560964,-73.93703839999999
The Spectrum School,School Garden,GrowNYC,"55 Battery Pl, New York, NY 10280, USA",Outdoor,40.705888,-74.01785699999999
School Garden 138,School Garden,GrowNYC,"144 E 128th St #176, New York, NY 10035, USA",Outdoor,40.8056543,-73.93546020000001
Robert F. Kennedy,School Garden,GrowNYC,"110 E 88th St, New York, NY 10128, USA",Outdoor,40.7808828,-73.95565959999999
Neighborhood Charter School of Harlem,School Garden,GrowNYC,"132 W 124th St, New York, NY 10027, USA",Outdoor,40.8074756,-73.9474169
Harlem Link Charter School,School Garden,GrowNYC,"20 W 112th St, New York, NY 10026, USA",Outdoor,40.7984949,-73.9498493
Harlem Village Academy Leadership Charter School,School Garden,GrowNYC,"2351 1st Ave, New York, NY 10035, USA",Outdoor,40.7992798,-73.93391609999999
The Equity Project Charter School (TEP),School Garden,GrowNYC,"549 Audubon Ave, New York, NY 10040, USA",Outdoor,40.8564966,-73.92606219999999
"The Earth School
",School Garden,GrowNYC,"600 E 6th St, New York, NY 10009, USA",Outdoor,40.7238456,-73.9817633
Grace Church School-High School,School Garden,GrowNYC,"46 Cooper Sq, New York, NY 10003, USA",Outdoor,40.7287054,-73.99139629999999
Ralph Bunche,School Garden,GrowNYC,"425 W 123rd St, New York, NY 10027, USA",Outdoor,40.8107532,-73.9562607
"New Explorations into Science, Technology and Math High School",School Garden,GrowNYC,"111 Columbia St, New York, NY 10002, USA",Outdoor,40.7197829,-73.9792454
@ PS882,School Garden,GrowNYC,"58-74 57th St, Maspeth, NY 11378, USA",Outdoor,40.7183488,-73.9122407
Hunter College Elementary School,School Garden,GrowNYC,"71 E 94th St, New York, NY 10128, USA",Outdoor,40.7859415,-73.9540755
Promise Academy 1 Upper,School Garden,GrowNYC,"245 W 129th St, New York, NY 10027, USA",Outdoor,40.8123797,-73.94801389999999
School of Cooperative Technical Education,School Garden,GrowNYC,"321 E 96th St, New York, NY 10128, USA",Outdoor,40.7838943,-73.9451009
DREAM Charter School,School Garden,GrowNYC,"1991 2nd Ave, New York, NY 10029, USA",Outdoor,40.7891971,-73.9442968
ABC Echo Park Early Childhood Center,School Garden,GrowNYC,"1841 Park Ave, New York, NY 10035, USA",Outdoor,40.8057448,-73.938138
Bellevue Day Care Center,School Garden,GrowNYC,"1st Ave, New York, NY, USA",Outdoor,40.76274,-73.95968429999999
Child Center of New York- Escalera Head Start,School Garden,GrowNYC,"169 W 87th St, New York, NY 10024, USA",Outdoor,40.78814209999999,-73.9735561
Hudson Guild Children's Center,School Garden,GrowNYC,"459 W 26th St, New York, NY 10001, USA",Outdoor,40.7496281,-74.0022625
Nicholas Cardell Day Care Center,School Garden,GrowNYC,"84 Vermilyea Ave, New York, NY 10034, USA",Outdoor,40.8660113,-73.9231712
Open Door Child Care Center,School Garden,GrowNYC,"820 Columbus Ave, New York, NY 10025, USA",Outdoor,40.7960721,-73.9659131
"George Washington YABC
",School Garden,GrowNYC,"549 Audubon Ave, New York, NY 10040, USA",Outdoor,40.8564966,-73.92606219999999
M. S. 297 (75 Morton),School Garden,GrowNYC,"75 Morton St, New York, NY 10014, USA",Outdoor,40.731204,-74.0074039
The Mickey Mantle School: 811M@149,School Garden,GrowNYC,"34 W 118th St, New York, NY 10026, USA",Outdoor,40.803013,-73.9482546
Annex of Manhattan Occupational Training Center,School Garden,GrowNYC,"400 1st Ave, New York, NY 10010, USA",Outdoor,40.7370465,-73.9780672
Nasry Michelen Day Care Center Inc,School Garden,GrowNYC,"415 W 150th St, New York, NY 10031, USA",Outdoor,40.8277799,-73.9432839
Museum Magnet School - Historic Record MOVED,School Garden,GrowNYC,"210 W 61st St, New York, NY 10023, USA",Outdoor,40.7719115,-73.9876838
Spectrum School @361,School Garden,GrowNYC,"610 E 12th St, New York, NY 10009, USA",Outdoor,40.7277257,-73.9783818
Manhattan Alternate Learning Center @ Highbridge,School Garden,GrowNYC,"80 Audubon Ave, New York, NY 10032, USA",Outdoor,40.8415323,-73.93811459999999
P004Q @213,School Garden,GrowNYC,"231-02 67th Ave, Queens, NY 11364, USA",Outdoor,40.74761300000001,-73.7448897
John Adams- YABC,School Garden,GrowNYC,"101-21 Rockaway Blvd, Jamaica, NY 11417, USA",Outdoor,40.6800445,-73.83818459999999
Bard High School Early College Queens,School Garden,GrowNYC,"30-20 Thomson Ave, Long Island City, NY 11101, USA",Outdoor,40.7449019,-73.9368178
Flushing International High School,School Garden,GrowNYC,"144-80 Barclay Ave, Flushing, NY 11355, USA",Outdoor,40.7603435,-73.81790869999999
Grover Cleveland High School,School Garden,GrowNYC,"21-27 Himrod St, Flushing, NY 11385, USA",Outdoor,40.7116318,-73.9091661
Hillcrest High School,School Garden,GrowNYC,"160-05 Highland Ave, Jamaica, NY 11432, USA",Outdoor,40.7095227,-73.80247159999999
John F. Kennedy ,School Garden,GrowNYC,"57-12 94th St, Queens, NY 11373, USA",Outdoor,40.7356921,-73.8677198
William Carr,School Garden,GrowNYC,"154-60 17th Ave, Flushing, NY 11357, USA",Outdoor,40.78322,-73.806977
America's School of Heroes,School Garden,GrowNYC,"109-15 98th St, Jamaica, NY 11417, USA",Outdoor,40.6783462,-73.8394184
Robert A. Van Wyck,School Garden,GrowNYC,"85-05 144th St, Queens, NY 11435, USA",Outdoor,40.7101992,-73.8123146
Nathaniel Hawthorne,School Garden,GrowNYC,"61-15 Oceania St, Oakland Gardens, NY 11364, USA",Outdoor,40.7450569,-73.7667697
Martin Van Buren High School,School Garden,GrowNYC,"230-17 Hillside Avenue, Queens Village, NY 11427, USA",Outdoor,40.7336309,-73.7391435
Arthur Ashe School,School Garden,GrowNYC,"101-33 124th St, Queens, NY 11419, USA",Outdoor,40.69066979999999,-73.82083879999999
Henry Gradstein,School Garden,GrowNYC,"33-09 35th Ave, Astoria, NY 11106, USA",Outdoor,40.75738610000001,-73.9261081
John Bowne,School Garden,GrowNYC,"142-30 Barclay Ave, Flushing, NY 11355, USA",Outdoor,40.7581943,-73.82379829999999
Alexander Graham Bell,School Garden,GrowNYC,"75-25 Bell Blvd, Flushing, NY 11364, USA",Outdoor,40.73801,-73.75638099999999
Emanuel Kaplan,School Garden,GrowNYC,"67-25 51st Rd, Queens, NY 11377, USA",Outdoor,40.73448519999999,-73.89730999999999
The Rosa Parks School,School Garden,GrowNYC,"84-40 101st St, Jamaica, NY 11418, USA",Outdoor,40.697177,-73.847866
State Street,School Garden,GrowNYC,"171-11 35th Ave, Queens, NY 11358, USA",Outdoor,40.7652093,-73.7942541
Saint Albans School,School Garden,GrowNYC,"187-1 Foch Blvd, St. Albans, NY 11412, USA",Outdoor,40.690733,-73.764017
Forest Park,School Garden,GrowNYC,"85-52 85th St, Jamaica, NY 11421, USA",Outdoor,40.694215,-73.860039
Goldie Maple Academy,School Garden,GrowNYC,"3-65 Beach 56th St, Far Rockaway, NY 11692, USA",Outdoor,40.59398700000001,-73.786652
Cambria Heights,School Garden,GrowNYC,"120-45 235th St, Cambria Heights, NY 11411, USA",Outdoor,40.6848405,-73.7297194
East-West School of International Studies,School Garden,GrowNYC,"46-21 Colden St, Flushing, NY 11355, USA",Outdoor,40.749226,-73.82123109999999
Albert Shanker School for Visual and Performing Arts,School Garden,GrowNYC,"31-51 21st St, Queens, NY 11106, USA",Outdoor,40.76603799999999,-73.929966
Robert H. Goddard High School of Communication Arts and Technology,School Garden,GrowNYC,"138-30 Lafayette St, Ozone Park, NY 11417, USA",Outdoor,40.671035,-73.8456739
The Walter Crowley Intermediate School,School Garden,GrowNYC,"50-40 Jacobus St, Queens, NY 11373, USA",Outdoor,40.7373295,-73.8877061
William Cullen Bryant High School,School Garden,GrowNYC,"48-10 31st Ave, Astoria, NY 11103, USA",Outdoor,40.7576896,-73.91037779999999
Ridgewood,School Garden,GrowNYC,"66-56 Forest Ave, Ridgewood, NY 11385, USA",Outdoor,40.705751,-73.9029908
Russell Sage,School Garden,GrowNYC,"68-17 Austin St, Forest Hills, NY 11375, USA",Outdoor,40.7231051,-73.8517865
Maspeth High School,School Garden,GrowNYC,"54-40 74th St, Queens, NY 11378, USA",Outdoor,40.7290832,-73.887571
Newtown High School,School Garden,GrowNYC,"48-01 90th St, Queens, NY 11373, USA",Outdoor,40.7408346,-73.8739962
School in the Gardens,School Garden,GrowNYC,"2 Russell Pl, Queens, NY 11375, USA",Outdoor,40.71563769999999,-73.8435145
Dutch Kills,School Garden,GrowNYC,"25-05 37th Ave, Long Island City, NY 11101, USA",Outdoor,40.7572054,-73.9340143
Christa Mcauliffe,School Garden,GrowNYC,"93-11 34th Ave, Queens, NY 11372, USA",Outdoor,40.7552247,-73.87420399999999
Bay Terrace,School Garden,GrowNYC,"18-25 212th St, Flushing, NY 11360, USA",Outdoor,40.7823459,-73.77844
Brookfield,School Garden,GrowNYC,"148-15 230th St, Springfield Gardens, NY 11413, USA",Outdoor,40.6557551,-73.7531049
William Haberle,School Garden,GrowNYC,"253-50 149th Ave, Rosedale, NY 11422, USA",Outdoor,40.652634,-73.7348222
Maurice A. Fitzgerald,School Garden,GrowNYC,"39-20 48th Ave, Sunnyside, NY 11104, USA",Outdoor,40.7396605,-73.9262918
Clearview Gardens,School Garden,GrowNYC,"16-10 Utopia Pkwy, Whitestone, NY 11357, USA",Outdoor,40.7837142,-73.7950273
Early Childhood Magnet School of the Arts,School Garden,GrowNYC,"32-63 93rd St, East Elmhurst, NY 11369, USA",Outdoor,40.7570142,-73.87484719999999
School Garden 251,School Garden,GrowNYC,"144-51 Arthur St, Springfield Gardens, NY 11413, USA",Outdoor,40.6653381,-73.7591855
School Garden 280,School Garden,GrowNYC,"34-20 94th St, Jackson Heights, NY 11372, USA",Outdoor,40.7537964,-73.8739284
The Academy for Excellence through the Arts,School Garden,GrowNYC,"108-55 69th Ave, Forest Hills, NY 11375, USA",Outdoor,40.72575519999999,-73.84404239999999
Robert F. Wagner,School Garden,GrowNYC,"48-09 Center Blvd, Queens, NY 11109, USA",Outdoor,40.7444645,-73.95766569999999
Elmhurst,School Garden,GrowNYC,"85-28 Britton Ave, Queens, NY 11373, USA",Outdoor,40.7459533,-73.8796485
Paul Klapper,School Garden,GrowNYC,"144-39 Gravett Rd, Queens, NY 11367, USA",Outdoor,40.7360828,-73.8232512
Steinway,School Garden,GrowNYC,"22-45 41st St, Astoria, NY 11105, USA",Outdoor,40.7711822,-73.906108
Robert F. Kennedy Community High School,School Garden,GrowNYC,"75-40 Parsons Blvd, Flushing, NY 11366, USA",Outdoor,40.7253501,-73.8113254
Metropolitan Expeditionary Learning School,School Garden,GrowNYC,"91-30 Metropolitan Ave, Forest Hills, NY 11375, USA",Outdoor,40.7088482,-73.8558219
Renaissance Charter School,School Garden,GrowNYC,"35-59 81st St, Queens, NY 11372, USA",Outdoor,40.7500221,-73.8851948
The Active Learning Elementary School,School Garden,GrowNYC,"137-20 Franklin Ave, Flushing, NY 11355, USA",Outdoor,40.7545655,-73.8261965
Queens Children's Psychiatric Center,School Garden,GrowNYC,"74-3 Commonwealth Blvd, Jamaica, NY 11426, USA",Outdoor,40.7458334,-73.7264836
"Queens High School of Teaching, Liberal Arts and the Sciences",School Garden,GrowNYC,"74-20 Commonwealth Blvd, Queens, NY 11426, USA",Outdoor,40.7444247,-73.72893789999999
The North Hills School,School Garden,GrowNYC,"57-40 Marathon Pkwy, Flushing, NY 11362, USA",Outdoor,40.7586405,-73.7313503
Lindenwood,School Garden,GrowNYC,"153-23 83rd St, Howard Beach, NY 11414, USA",Outdoor,40.6657686,-73.8508003
Edward Mandel,School Garden,GrowNYC,"62-10 108th St, Forest Hills, NY 11375, USA",Outdoor,40.7365,-73.8518454
Joseph Pulitzer,School Garden,GrowNYC,"33-34 80th St, Flushing, NY 11372, USA",Outdoor,40.75405019999999,-73.8871758
Jackson Heights,School Garden,GrowNYC,"77-02 37th Ave, Queens, NY 11372, USA",Outdoor,40.7486886,-73.88867429999999
Eastwood,School Garden,GrowNYC,"179-01 90th Ave, Jamaica, NY 11432, USA",Outdoor,40.7112763,-73.78327
Clement C. Moore,School Garden,GrowNYC,"55-01 94th St, Flushing, NY 11373, USA",Outdoor,40.7373286,-73.86789999999999
@ J.H. 168 (Parsons Ed. Complex)- D75 MAIN SITE,School Garden,GrowNYC,"158-40 76th Rd, Flushing, NY 11366, USA",Outdoor,40.724191,-73.80937
Learners and Leaders,School Garden,GrowNYC,"378 Seneca Ave, Ridgewood, NY 11385, USA",Outdoor,40.706955,-73.91495929999999
Pioneer Academy,School Garden,GrowNYC,"40-20 100th St, Corona, NY 11368, USA",Outdoor,40.749258,-73.8659349
School Garden 266,School Garden,GrowNYC,"74-10 Commonwealth Blvd, Jamaica, NY 11426, USA",Outdoor,40.7455965,-73.7282367
School Garden 154,School Garden,GrowNYC,"75-02 162nd St, Fresh Meadows, NY 11366, USA",Outdoor,40.7264956,-73.80753539999999
Talfourd Lawn Elementary School,School Garden,GrowNYC,"143-26 101st Ave, Jamaica, NY 11435, USA",Outdoor,40.6952004,-73.80719119999999
Lindenwood,School Garden,GrowNYC,"153-23 83rd St, Howard Beach, NY 11414, USA",Outdoor,40.6657686,-73.8508003
Thomas A Dooley,School Garden,GrowNYC,"167-02 45th Ave, Flushing, NY 11358, USA",Outdoor,40.7555258,-73.79924419999999
Horace Mann,School Garden,GrowNYC,"86-50 109th St, Richmond Hill, NY 11418, USA",Outdoor,40.6967154,-73.8392673
School Garden 070,School Garden,GrowNYC,"30-45 42nd St, Long Island City, NY 11103, USA",Outdoor,40.761734,-73.913973
Louis Armstrong,School Garden,GrowNYC,"32-02 Junction Blvd, Flushing, NY 11369, USA",Outdoor,40.757566,-73.874573
Oliver W. Holmes,School Garden,GrowNYC,"36-41 28th St, Long Island City, NY 11106, USA",Outdoor,40.75647,-73.9326361
Horace Greeley,School Garden,GrowNYC,"45-11 31st Ave, Long Island City, NY 11103, USA",Outdoor,40.7595184,-73.9124987
J. Keld / Briarwood School,School Garden,GrowNYC,"85-15 143rd St, Briarwood, NY 11435, USA",Outdoor,40.7102309,-73.81305689999999
Robert H. Goddard,School Garden,GrowNYC,"138-30 Lafayette St, Ozone Park, NY 11417, USA",Outdoor,40.671035,-73.8456739
The Horace Harding School,School Garden,GrowNYC,"61-2 98th St, Rego Park, NY 11374, USA",Outdoor,40.7341384,-73.8608991
Brian Piccolo,School Garden,GrowNYC,"10-45 Nameoke St, Far Rockaway, NY 11691, USA",Outdoor,40.6039467,-73.7499002
Fairview,School Garden,GrowNYC,"107-01 Otis Ave, Flushing, NY 11368, USA",Outdoor,40.74091749999999,-73.8543016
Marino Jeantet,School Garden,GrowNYC,"98-2 Roosevelt Ave, Corona, NY 11368, USA",Outdoor,40.748953,-73.8668821
Leonardo Da Vinci,School Garden,GrowNYC,"98-50 50th Ave, Corona, NY 11368, USA",Outdoor,40.7419036,-73.862771
Cambridge,School Garden,GrowNYC,"59-09 St Felix Ave, Flushing, NY 11385, USA",Outdoor,40.69683920000001,-73.89730759999999
Bayview,School Garden,GrowNYC,"55-24 Van Horn St, Elmhurst, NY 11373, USA",Outdoor,40.7332374,-73.8780027
School Garden 110,School Garden,GrowNYC,"48-25 37th St, Queens, NY 11101, USA",Outdoor,40.7395375,-73.92868
Louis Armstrong,School Garden,GrowNYC,"34-74 113th St, Flushing, NY 11368, USA",Outdoor,40.7554197,-73.8557034
Maspeth Elem,School Garden,GrowNYC,"60-02 60th Ln, Flushing, NY 11378, USA",Outdoor,40.7161348,-73.9042458
Elm Tree Elementary School,School Garden,GrowNYC,"86-37 53rd Ave, Queens, NY 11373, USA",Outdoor,40.7358304,-73.878578
International High School for Health Sciences,School Garden,GrowNYC,"48-01 90th St, Queens, NY 11373, USA",Outdoor,40.7408346,-73.8739962
Ramon Suarez School,School Garden,GrowNYC,"17-15 Weirfield St, Queens, NY 11385, USA",Outdoor,40.6992116,-73.90387849999999
A.C.E. Academy for Scholars at the Geraldine Ferraro Campus,School Garden,GrowNYC,"55-20 Metropolitan Ave, Flushing, NY 11385, USA",Outdoor,40.712656,-73.90818399999999
Corona Arts and Sciences Academy,School Garden,GrowNYC,"45-10 94th St, Queens, NY 11373, USA",Outdoor,40.7434324,-73.8714707
Queens Vocational and Technical High School,School Garden,GrowNYC,"37-2 47th Ave, Long Island City, NY 11101, USA",Outdoor,40.7419393,-73.9279577
Aviation Career & Technical Education High School,School Garden,GrowNYC,"45-30 36th St, Long Island City, NY 11101, USA",Outdoor,40.743581,-73.9292176
Thomas Jefferson,School Garden,GrowNYC,"153-33 Sanford Ave, Queens, NY 11355, USA",Outdoor,40.7607247,-73.8115416
School Garden 130,School Garden,GrowNYC,"200-01 42nd Ave, Flushing, NY 11361, USA",Outdoor,40.7600589,-73.7839134
Alfred J. Kennedy,School Garden,GrowNYC,"152-20 11th Ave, Whitestone, NY 11357, USA",Outdoor,40.7922813,-73.8095587
World Journalism Preparatory: A College Board School,School Garden,GrowNYC,"34-65 192nd St, Flushing, NY 11358, USA",Outdoor,40.7650434,-73.7896124
Winchester,School Garden,GrowNYC,"86-35 235th Ct, Queens Village, NY 11427, USA",Outdoor,40.7320695,-73.732064
Irwin Altman Middle School 172,School Garden,GrowNYC,"81-14 257th St, Glen Oaks, NY 11004, USA",Outdoor,40.7417047,-73.7133066
Castlewood,School Garden,GrowNYC,"252-12 72nd Ave, Jamaica, NY 11426, USA",Outdoor,40.7496437,-73.72143969999999
The Carl Ullman School,School Garden,GrowNYC,"231-02 67th Ave, Queens, NY 11364, USA",Outdoor,40.74761300000001,-73.7448897
Joseph P. Addabbo,School Garden,GrowNYC,"82-1 101st Ave, Ozone Park, NY 11416, USA",Outdoor,40.6816051,-73.8569972
Osmond A Church,School Garden,GrowNYC,"129-15 150th Ave, Queens, NY 11420, USA",Outdoor,40.6652798,-73.8113913
Elizabeth Blackwell,School Garden,GrowNYC,"93-11 101st Ave, Queens, NY 11416, USA",Outdoor,40.6845598,-73.8473279
Virgil I. Grissom,School Garden,GrowNYC,"121-10 Rockaway Blvd, South Ozone Park, NY 11420, USA",Outdoor,40.6750888,-73.816818
School Garden 253,School Garden,GrowNYC,"13-07 Central Ave, Far Rockaway, NY 11691, USA",Outdoor,40.6073901,-73.748843
Scholars' Academy,School Garden,GrowNYC,"320 Beach 104th St, Rockaway Park, NY 11694, USA",Outdoor,40.5842722,-73.8250892
Richmond Hill High School,School Garden,GrowNYC,"89-30 114th St, Richmond Hill, NY 11418, USA",Outdoor,40.6949961,-73.8339115
Catherine & Count Basie Middle School 72,School Garden,GrowNYC,"133-25 Guy R Brewer Blvd, Jamaica, NY 11434, USA",Outdoor,40.6749335,-73.7757841
School Garden 086,School Garden,GrowNYC,"87-41 Parsons Blvd, Jamaica, NY 11432, USA",Outdoor,40.7094618,-73.8035723
Stephen A. Halsey,School Garden,GrowNYC,"63-55 102nd St, Rego Park, NY 11374, USA",Outdoor,40.7323207,-73.85294999999999
Walter Francis Bishop,School Garden,GrowNYC,"109-59 Inwood St, Queens, NY 11435, USA",Outdoor,40.688145,-73.80000330000001
William Sidney Mount,School Garden,GrowNYC,"65-10 Dieterle Crescent, Flushing, NY 11374, USA",Outdoor,40.7205669,-73.8614406
The Lynn Gross Discovery School,School Garden,GrowNYC,"64-35 102nd St, Queens, NY 11374, USA",Outdoor,40.7308519,-73.852491
Grand Central Parkway,School Garden,GrowNYC,"71-25 113th St, Queens, NY 11375, USA",Outdoor,40.722976,-73.8377256
School Garden 354,School Garden,GrowNYC,"126-10 Bedell St, Jamaica, NY 11434, USA",Outdoor,40.6797883,-73.7744566
Forest Hills High School,School Garden,GrowNYC,"67-01 110th St, Queens, NY 11375, USA",Outdoor,40.7298471,-73.8446293
Thomas A. Edison Career and Technical Education High School,School Garden,GrowNYC,"165-65 84th Ave, Queens, NY 11432, USA",Outdoor,40.7162107,-73.7988039
School Garden 052,School Garden,GrowNYC,"178-37 146th Terrace, Jamaica, NY 11434, USA",Outdoor,40.6613327,-73.7668134
The Bellaire School,School Garden,GrowNYC,"207-11 89th Ave, Jamaica, NY 11427, USA",Outdoor,40.720849,-73.757595
School Garden 268,School Garden,GrowNYC,"92-07 175th St, Jamaica, NY 11433, USA",Outdoor,40.7076619,-73.7852463
The Gordon Parks School,School Garden,GrowNYC,"233-15 Merrick Blvd, Jamaica, NY 11422, USA",Outdoor,40.6749904,-73.7363585
New choice ES at Q892,School Garden,GrowNYC,"199-10 112th Ave, St. Albans, NY 11412, USA",Outdoor,40.7024141,-73.7562896
Henry David Thoreau,School Garden,GrowNYC,"28-37 29th St, Long Island City, NY 11102, USA",Outdoor,40.7682186,-73.9228164
Harry T. Stewart Sr.,School Garden,GrowNYC,"99-01 34th Ave, Flushing, NY 11368, USA",Outdoor,40.7561516,-73.8687551
Mamie Fay,School Garden,GrowNYC,"21-21 Ditmars Blvd, Queens, NY 11105, USA",Outdoor,40.7802869,-73.9160468
The Aerospace and Science Academy,School Garden,GrowNYC,"98-01 25th Ave, Flushing, NY 11369, USA",Outdoor,40.7649462,-73.8712888
The Steinway,School Garden,GrowNYC,"37-11 21st Ave, Queens, NY 11105, USA",Outdoor,40.7756029,-73.9045733
Mary D. Carter,School Garden,GrowNYC,"50-05 31st Ave, Woodside, NY 11377, USA",Outdoor,40.75761019999999,-73.9081959
Energy Tech High School,School Garden,GrowNYC,"36-41 28th St, Long Island City, NY 11106, USA",Outdoor,40.75647,-73.9326361
Hunters Point Community Middle School,School Garden,GrowNYC,"1-50 51st Ave, Long Island City, NY 11101, USA",Outdoor,40.7435115,-73.9590975
The 30th Avenue School (G&T Citywide),School Garden,GrowNYC,"28-37 29th St, Long Island City, NY 11102, USA",Outdoor,40.7682186,-73.9228164
East Elmhurst Community School,School Garden,GrowNYC,"26-25 97th St, East Elmhurst, NY 11369, USA",Outdoor,40.7616088,-73.8719071
Long Island City High School,School Garden,GrowNYC,"14-30 Broadway, Queens, NY 11106, USA",Outdoor,40.765532,-73.933142
Newcomers High School,School Garden,GrowNYC,"28-01 41st Ave, Long Island City, NY 11101, USA",Outdoor,40.7514381,-73.93685909999999
P004Q @P179Q,School Garden,GrowNYC,"196-25 Peck Ave, Fresh Meadows, NY 11365, USA",Outdoor,40.7416616,-73.7783377
Walter Reed,School Garden,GrowNYC,"58-74 57th St, Maspeth, NY 11378, USA",Outdoor,40.7183488,-73.9122407
PS 224@186,School Garden,GrowNYC,"252-12 72nd Ave, Jamaica, NY 11426, USA",Outdoor,40.7496437,-73.72143969999999
The Riverview School 277Q,School Garden,GrowNYC,"1-50 51st Ave, Long Island City, NY 11101, USA",Outdoor,40.7435115,-73.9590975
Academy of the City Charter School,School Garden,GrowNYC,"31-29 60th St, Woodside, NY 11377, USA",Outdoor,40.7569203,-73.90251429999999
Merrick Academy - Queens Public Charter School,School Garden,GrowNYC,"136-25 218th St, Laurelton, NY 11413, USA",Outdoor,40.6761901,-73.75303989999999
Adventureland Child Care Center,School Garden,GrowNYC,"32-04 31st Ave, Queens, NY 11106, USA",Outdoor,40.7636512,-73.9226085
Child Center of New York- Woodside,School Garden,GrowNYC,"60-02 Roosevelt Ave, Woodside, NY 11377, USA",Outdoor,40.7452907,-73.9042283
Horace Greeley,School Garden,GrowNYC,"45-11 31st Ave, Long Island City, NY 11103, USA",Outdoor,40.7595184,-73.9124987
School Garden 132,School Garden,GrowNYC,"132-15 218th St, Laurelton, NY 11413, USA",Outdoor,40.6819255,-73.7496704
PS 224@205,School Garden,GrowNYC,"75-25 Bell Blvd, Flushing, NY 11364, USA",Outdoor,40.73801,-73.75638099999999
The Riverview School @ Q311,School Garden,GrowNYC,"9811 44th Ave, Corona, NY 11368, USA",Outdoor,40.7459311,-73.8650938
Bright Beginnings,School Garden,GrowNYC,"86-25 162nd St, Jamaica, NY 11432, USA",Outdoor,40.7100714,-73.8010059
Lifeline Center for Child Development ,School Garden,GrowNYC,"80-09 Winchester Blvd, Queens, NY 11427, USA",Outdoor,40.7386377,-73.7329374
@P 822 Q,School Garden,GrowNYC,"114-36 202nd St, Queens, NY 11412, USA",Outdoor,40.6992392,-73.7498883
Concord High School,School Garden,GrowNYC,"109 Rhine Ave, Staten Island, NY 10304, USA",Outdoor,40.61081679999999,-74.0867844
Myra S. Barnes,School Garden,GrowNYC,"225 Cleveland Ave, Staten Island, NY 10308, USA",Outdoor,40.5455887,-74.1453744
Berta A. Dreyfus,School Garden,GrowNYC,"101 Warren St, Staten Island, NY 10304, USA",Outdoor,40.6206375,-74.0809565
The Carteret School,School Garden,GrowNYC,"4108 Victory Blvd, Staten Island, NY 10314, USA",Outdoor,40.59146519999999,-74.1902336
Henry M. Boehm,School Garden,GrowNYC,"54 Osborne St, Staten Island, NY 10312, USA",Outdoor,40.5364146,-74.1635459
The Michael J. Petrides School,School Garden,GrowNYC,"715 Ocean Terrace, Staten Island, NY 10301, USA",Outdoor,40.6084411,-74.1052619
Port Richmond High School,School Garden,GrowNYC,"85 St Josephs Ave, Staten Island, NY 10302, USA",Outdoor,40.634843,-74.142015
Elias Bernstein,School Garden,GrowNYC,"1270 Huguenot Ave, Staten Island, NY 10312, USA",Outdoor,40.5232568,-74.1862893
Margaret Emery-Elm Park,School Garden,GrowNYC,"168 Hooker Pl, Staten Island, NY 10302, USA",Outdoor,40.6311878,-74.1446863
Francis J. Murphy Jr.,School Garden,GrowNYC,"71 Sand Ln, Staten Island, NY 10305, USA",Outdoor,40.59787,-74.0701722
The Richard H. Hungerford School @JPS,School Garden,GrowNYC,"100 Essex Dr, Staten Island, NY 10314, USA",Outdoor,40.5822073,-74.15993879999999
Shirlee Solomon,School Garden,GrowNYC,"112 Lindenwood Rd, Staten Island, NY 10308, USA",Outdoor,40.5476445,-74.1519507
"ALC @ Mt. Loretto, Brooklyn West Alternate Learning Center",School Garden,GrowNYC,"6581 Hylan Blvd, Staten Island, NY 10309, USA",Outdoor,40.51173259999999,-74.2216239
School Garden 037,School Garden,GrowNYC,"15 Fairfield St, Staten Island, NY 10308, USA",Outdoor,40.5641064,-74.15142960000001
Robert Randall/ 373@PS40,School Garden,GrowNYC,"91 Henderson Ave, Staten Island, NY 10301, USA",Outdoor,40.641322,-74.0956865
Staten Island School of Civic Leadership,School Garden,GrowNYC,"280 Regis Dr, Staten Island, NY 10314, USA",Outdoor,40.6204522,-74.1644159
Curtis High School,School Garden,GrowNYC,"105 Hamilton Ave, Staten Island, NY 10301, USA",Outdoor,40.645186,-74.0816561
Naples Street Elementary School,School Garden,GrowNYC,"1055 Targee St, Staten Island, NY 10304, USA",Outdoor,40.602419,-74.0909143
Hubert H. Humphrey,School Garden,GrowNYC,"140 Palma Dr, Staten Island, NY 10304, USA",Outdoor,40.61110499999999,-74.0835548
William G. Wilcox,School Garden,GrowNYC,"1050 Targee St, Staten Island, NY 10304, USA",Outdoor,40.6030173,-74.09197089999999
Fort Hill Collaborative Elementary School,School Garden,GrowNYC,"80 Monroe Ave, Staten Island, NY 10301, USA",Outdoor,40.6397295,-74.0794421
M. L. Lindemeyer,School Garden,GrowNYC,"191 Vermont Ave, Staten Island, NY 10305, USA",Outdoor,40.6129444,-74.0692084
John J. Driscoll,School Garden,GrowNYC,"80 Monroe Ave, Staten Island, NY 10301, USA",Outdoor,40.6397295,-74.0794421
Thomas C. Brown,School Garden,GrowNYC,"80 Maple Pkwy, Staten Island, NY 10303, USA",Outdoor,40.6317646,-74.15698909999999
John Tyler,School Garden,GrowNYC,"58 Lawrence Ave, Staten Island, NY 10310, USA",Outdoor,40.6285385,-74.107387
The Kathleen Grimm School for Leadership and Sustainability,School Garden,GrowNYC,"644 Bloomingdale Rd, Staten Island, NY 10309, USA",Outdoor,40.5415058,-74.21909699999999
Rocco Laurie,School Garden,GrowNYC,"33 Ferndale Ave, Staten Island, NY 10314, USA",Outdoor,40.5928763,-74.1587995
School Garden 373,School Garden,GrowNYC,"77 Marsh Ave, Staten Island, NY 10314, USA",Outdoor,40.5832107,-74.1606039
Great Kills High School (@843),School Garden,GrowNYC,"110 Shafter Ave, Staten Island, NY 10308, USA",Outdoor,40.5544027,-74.1482644
The Hungerford School - Main Site,School Garden,GrowNYC,"155 Tompkins Ave., Staten Island, NY 10304, USA",Outdoor,40.620868,-74.0771017
School Garden 256,School Garden,GrowNYC,"525 Convent Rd, Oyster Bay, NY 11791, USA",Outdoor,40.8218022,-73.4872426
@ 151Q - D75 SATELLITE SITE,School Garden,GrowNYC,"50-05 31st Ave, Woodside, NY 11377, USA",Outdoor,40.75761019999999,-73.9081959
